{
"type": "FeatureCollection",
"name": "osm_drains_viana",
"crs": { "type": "name", "properties": { "name": "urn:ogc:def:crs:OGC:1.3:CRS84" } },
"features": [
{ "type": "Feature", "properties": { "name": null, "waterway": "drain" }, "geometry": { "type": "LineString", "coordinates": [ [ -8.399345, 41.5604263 ], [ -8.3993531, 41.5603039 ], [ -8.3993853, 41.5602056 ], [ -8.3993531, 41.5600751 ], [ -8.3991492, 41.5597881 ], [ -8.3989186, 41.5596296 ], [ -8.3987923, 41.559551 ] ] } },
{ "type": "Feature", "properties": { "name": null, "waterway": "drain" }, "geometry": { "type": "LineString", "coordinates": [ [ -8.6478656, 41.9870308 ], [ -8.6479273, 41.9870348 ], [ -8.6480115, 41.987045 ] ] } },
{ "type": "Feature", "properties": { "name": null, "waterway": "drain" }, "geometry": { "type": "LineString", "coordinates": [ [ -8.6491304, 41.9867628 ], [ -8.6491218, 41.9867244 ] ] } },
{ "type": "Feature", "properties": { "name": null, "waterway": "drain" }, "geometry": { "type": "LineString", "coordinates": [ [ -8.6497387, 41.9867177 ], [ -8.6497173, 41.9866738 ] ] } },
{ "type": "Feature", "properties": { "name": null, "waterway": "drain" }, "geometry": { "type": "LineString", "coordinates": [ [ -8.6503601, 41.986646 ], [ -8.6498884, 41.9866143 ], [ -8.6498495, 41.9866078 ] ] } },
{ "type": "Feature", "properties": { "name": null, "waterway": "drain" }, "geometry": { "type": "LineString", "coordinates": [ [ -8.648446, 41.9867739 ], [ -8.6485828, 41.986738 ], [ -8.6486928, 41.9867021 ], [ -8.6487484, 41.9866743 ] ] } },
{ "type": "Feature", "properties": { "name": null, "waterway": "drain" }, "geometry": { "type": "LineString", "coordinates": [ [ -8.6473997, 41.9885396 ], [ -8.6473856, 41.9885679 ], [ -8.6473642, 41.9886097 ], [ -8.6473383, 41.9886459 ], [ -8.6473051, 41.9886814 ], [ -8.6472622, 41.9887233 ], [ -8.6472086, 41.9887612 ], [ -8.6471362, 41.988805 ], [ -8.6469162, 41.9889306 ], [ -8.6462886, 41.9892935 ], [ -8.6462278, 41.9893258 ], [ -8.6461759, 41.9893573 ], [ -8.646125, 41.9893931 ], [ -8.6460794, 41.989427 ], [ -8.6460338, 41.9894649 ], [ -8.6459345, 41.9895486 ], [ -8.6458138, 41.9896543 ], [ -8.6457349, 41.9897241 ], [ -8.6456824, 41.9897719 ], [ -8.6456368, 41.9898178 ], [ -8.6455939, 41.9898656 ], [ -8.6455627, 41.9899079 ], [ -8.6455295, 41.9899533 ], [ -8.6455027, 41.9899952 ], [ -8.6454812, 41.9900291 ] ] } },
{ "type": "Feature", "properties": { "name": null, "waterway": "drain" }, "geometry": { "type": "LineString", "coordinates": [ [ -8.6498088, 41.9866791 ], [ -8.6497013, 41.9869055 ] ] } },
{ "type": "Feature", "properties": { "name": null, "waterway": "drain" }, "geometry": { "type": "LineString", "coordinates": [ [ -8.647399, 41.9872661 ], [ -8.6474285, 41.987278 ], [ -8.6475277, 41.987288 ], [ -8.6476349, 41.9873079 ], [ -8.647671, 41.9873181 ], [ -8.6477341, 41.9873358 ], [ -8.6478119, 41.9873637 ], [ -8.6478602, 41.9873837 ], [ -8.6479138, 41.9874116 ], [ -8.6479331, 41.9874217 ], [ -8.6479568, 41.9874395 ], [ -8.6479907, 41.9874705 ], [ -8.6480282, 41.9875104 ], [ -8.6480524, 41.9875503 ], [ -8.6480738, 41.9875981 ], [ -8.6480926, 41.9876479 ], [ -8.6481141, 41.9877117 ], [ -8.6481231, 41.9877585 ], [ -8.6481248, 41.9877855 ], [ -8.6481257, 41.9878183 ], [ -8.6481248, 41.9878433 ], [ -8.6481194, 41.9878692 ], [ -8.6481096, 41.987908 ], [ -8.6480962, 41.9879439 ], [ -8.6480765, 41.9879769 ], [ -8.6480524, 41.9880168 ], [ -8.6480252, 41.9880504 ], [ -8.6480211, 41.9880555 ], [ -8.64798, 41.9880965 ], [ -8.6479341, 41.9881374 ], [ -8.6478817, 41.9881811 ], [ -8.647828, 41.988219 ], [ -8.6477771, 41.9882469 ], [ -8.6477154, 41.9882768 ], [ -8.647651, 41.9883008 ], [ -8.6475868, 41.9883207 ], [ -8.647517, 41.9883367 ], [ -8.6474402, 41.9883509 ] ] } },
{ "type": "Feature", "properties": { "name": null, "waterway": "drain" }, "geometry": { "type": "LineString", "coordinates": [ [ -8.6472756, 41.986658 ], [ -8.647399, 41.9872661 ] ] } },
{ "type": "Feature", "properties": { "name": null, "waterway": "drain" }, "geometry": { "type": "LineString", "coordinates": [ [ -8.6480952, 41.9872978 ], [ -8.6479331, 41.9874217 ] ] } },
{ "type": "Feature", "properties": { "name": null, "waterway": "drain" }, "geometry": { "type": "LineString", "coordinates": [ [ -8.6481682, 41.9880949 ], [ -8.6480252, 41.9880504 ] ] } },
{ "type": "Feature", "properties": { "name": null, "waterway": "drain" }, "geometry": { "type": "LineString", "coordinates": [ [ -8.6480115, 41.987045 ], [ -8.6480356, 41.987045 ], [ -8.6495581, 41.986947 ], [ -8.6496189, 41.9869405 ], [ -8.6496861, 41.9869496 ] ] } },
{ "type": "Feature", "properties": { "name": null, "waterway": "drain" }, "geometry": { "type": "LineString", "coordinates": [ [ -8.6480115, 41.987045 ], [ -8.6481447, 41.9871005 ], [ -8.6482037, 41.9871224 ], [ -8.6482573, 41.9871523 ], [ -8.6483083, 41.9871922 ], [ -8.6483539, 41.9872341 ], [ -8.6483968, 41.9872859 ], [ -8.6484397, 41.9873457 ], [ -8.6484746, 41.9874035 ], [ -8.6484987, 41.9874474 ], [ -8.6485175, 41.9874972 ], [ -8.6485336, 41.9875571 ], [ -8.6485479, 41.9876222 ], [ -8.648556, 41.987696 ], [ -8.6485495, 41.9877697 ], [ -8.6485336, 41.9878362 ], [ -8.6485068, 41.9879219 ], [ -8.6484755, 41.988017 ], [ -8.6484406, 41.9880848 ], [ -8.6483807, 41.9881591 ], [ -8.6483199, 41.9882183 ], [ -8.6482359, 41.9882788 ], [ -8.6481774, 41.988313 ], [ -8.648041, 41.9883838 ], [ -8.6479354, 41.9884363 ], [ -8.6478559, 41.9884715 ], [ -8.6477611, 41.988506 ], [ -8.6476699, 41.98853 ], [ -8.6475743, 41.9885413 ], [ -8.6474768, 41.9885459 ], [ -8.6474231, 41.9885419 ], [ -8.6473997, 41.9885396 ] ] } },
{ "type": "Feature", "properties": { "name": null, "waterway": "drain" }, "geometry": { "type": "LineString", "coordinates": [ [ -8.6474402, 41.9883509 ], [ -8.6474044, 41.98853 ] ] } },
{ "type": "Feature", "properties": { "name": null, "waterway": "drain" }, "geometry": { "type": "LineString", "coordinates": [ [ -8.6487484, 41.9866743 ], [ -8.6487534, 41.9866799 ], [ -8.6487722, 41.9866899 ], [ -8.6488071, 41.9867058 ], [ -8.6488473, 41.9867198 ], [ -8.6489074, 41.986728 ], [ -8.6490511, 41.9867257 ], [ -8.6491218, 41.9867244 ], [ -8.6492453, 41.9867221 ], [ -8.6494519, 41.9867061 ], [ -8.6496761, 41.9866799 ], [ -8.6497173, 41.9866738 ], [ -8.6497297, 41.9866719 ], [ -8.6497566, 41.98666 ], [ -8.649789, 41.9866384 ], [ -8.6498495, 41.9866078 ] ] } },
{ "type": "Feature", "properties": { "name": null, "waterway": "drain" }, "geometry": { "type": "LineString", "coordinates": [ [ -8.6441589, 41.9867676 ], [ -8.6441374, 41.9868075 ], [ -8.644124, 41.9868434 ], [ -8.6441133, 41.9868833 ], [ -8.6441079, 41.9869192 ], [ -8.6441079, 41.986961 ], [ -8.6441133, 41.9870049 ], [ -8.644124, 41.9870428 ], [ -8.6441374, 41.9870787 ], [ -8.6441562, 41.9871125 ], [ -8.6441793, 41.9871435 ], [ -8.6442125, 41.9871803 ], [ -8.6442501, 41.9872162 ], [ -8.6442755, 41.9872351 ], [ -8.6442876, 41.9872441 ], [ -8.6443013, 41.987252 ], [ -8.6443359, 41.987272 ], [ -8.6443922, 41.987294 ], [ -8.6444539, 41.9873119 ], [ -8.6445076, 41.9873239 ], [ -8.6445639, 41.9873338 ], [ -8.6446068, 41.9873384 ], [ -8.6446202, 41.9873398 ], [ -8.6446685, 41.9873418 ], [ -8.6447114, 41.9873398 ], [ -8.6447543, 41.9873338 ], [ -8.6447908, 41.987325 ], [ -8.6448214, 41.9873159 ], [ -8.6449609, 41.987274 ], [ -8.6451567, 41.9872082 ], [ -8.6453525, 41.9871365 ], [ -8.6455215, 41.9870687 ], [ -8.6457199, 41.9869869 ], [ -8.6459131, 41.9869251 ], [ -8.6459935, 41.9868992 ], [ -8.6460525, 41.9868873 ], [ -8.6460928, 41.9868853 ] ] } },
{ "type": "Feature", "properties": { "name": null, "waterway": "drain" }, "geometry": { "type": "LineString", "coordinates": [ [ -8.6440632, 41.9867284 ], [ -8.6441589, 41.9867676 ] ] } },
{ "type": "Feature", "properties": { "name": null, "waterway": "drain" }, "geometry": { "type": "LineString", "coordinates": [ [ -8.644553, 41.9874578 ], [ -8.6446068, 41.9873384 ] ] } },
{ "type": "Feature", "properties": { "name": null, "waterway": "drain" }, "geometry": { "type": "LineString", "coordinates": [ [ -8.6440087, 41.9874594 ], [ -8.6442719, 41.9872576 ] ] } },
{ "type": "Feature", "properties": { "name": null, "waterway": "drain" }, "geometry": { "type": "LineString", "coordinates": [ [ -8.6453176, 41.9856611 ], [ -8.6443775, 41.9862668 ], [ -8.6440888, 41.9864528 ], [ -8.6440351, 41.9864927 ], [ -8.6439895, 41.9865306 ], [ -8.6439413, 41.9865744 ], [ -8.6438876, 41.9866283 ], [ -8.6438371, 41.9866879 ], [ -8.6437937, 41.9867459 ], [ -8.6437562, 41.9868057 ], [ -8.6437267, 41.9868675 ], [ -8.6436976, 41.9869411 ] ] } },
{ "type": "Feature", "properties": { "name": null, "waterway": "drain" }, "geometry": { "type": "LineString", "coordinates": [ [ -8.6436945, 41.9880936 ], [ -8.6437298, 41.9881013 ], [ -8.6437455, 41.9881026 ] ] } },
{ "type": "Feature", "properties": { "name": null, "waterway": "drain" }, "geometry": { "type": "LineString", "coordinates": [ [ -8.6436976, 41.9869411 ], [ -8.643673, 41.987023 ], [ -8.64366, 41.9870826 ], [ -8.6436557, 41.9871386 ], [ -8.643656, 41.9871834 ], [ -8.64366, 41.9872262 ], [ -8.6436614, 41.9872343 ], [ -8.6436976, 41.9874554 ], [ -8.6437347, 41.987663 ], [ -8.6437455, 41.9877288 ], [ -8.6437512, 41.9877983 ], [ -8.6437512, 41.9878601 ], [ -8.6437455, 41.9879261 ], [ -8.6437321, 41.9880139 ], [ -8.6437199, 41.9880796 ] ] } },
{ "type": "Feature", "properties": { "name": null, "waterway": "drain" }, "geometry": { "type": "LineString", "coordinates": [ [ -8.6444986, 41.9861492 ], [ -8.6444808, 41.9861655 ], [ -8.6444459, 41.9861974 ], [ -8.6443775, 41.9862668 ] ] } },
{ "type": "Feature", "properties": { "name": null, "waterway": "drain" }, "geometry": { "type": "LineString", "coordinates": [ [ -8.6437455, 41.9881026 ], [ -8.6437539, 41.9881033 ], [ -8.6437727, 41.9881033 ], [ -8.6437915, 41.9880973 ], [ -8.6438236, 41.9880813 ], [ -8.6438666, 41.9880555 ], [ -8.6443413, 41.9877226 ], [ -8.6443869, 41.9876907 ], [ -8.6444241, 41.987669 ], [ -8.6444593, 41.9876528 ] ] } },
{ "type": "Feature", "properties": { "name": null, "waterway": "drain" }, "geometry": { "type": "LineString", "coordinates": [ [ -8.6436945, 41.9880936 ], [ -8.6437185, 41.9880873 ], [ -8.6437401, 41.9880816 ], [ -8.6437696, 41.9880637 ], [ -8.6437911, 41.9880418 ], [ -8.6438049, 41.9880156 ], [ -8.643821, 41.9879618 ], [ -8.6439229, 41.987597 ], [ -8.6439363, 41.9875571 ], [ -8.6439551, 41.9875132 ], [ -8.6439712, 41.9874953 ], [ -8.6439847, 41.9874832 ] ] } },
{ "type": "Feature", "properties": { "name": null, "waterway": "drain" }, "geometry": { "type": "LineString", "coordinates": [ [ -8.6436976, 41.9869411 ], [ -8.6437029, 41.986975 ], [ -8.6437428, 41.9870768 ], [ -8.6437937, 41.9871925 ], [ -8.6438447, 41.9872941 ], [ -8.6438716, 41.987332 ], [ -8.6438934, 41.9873737 ], [ -8.6439252, 41.9874197 ], [ -8.64396, 41.9874616 ], [ -8.6439847, 41.9874832 ] ] } },
{ "type": "Feature", "properties": { "name": null, "waterway": "drain" }, "geometry": { "type": "LineString", "coordinates": [ [ -8.6434991, 41.9884342 ], [ -8.6436976, 41.988181 ], [ -8.6437164, 41.9881551 ], [ -8.6437325, 41.9881272 ], [ -8.6437455, 41.9881026 ] ] } },
{ "type": "Feature", "properties": { "name": null, "waterway": "drain" }, "geometry": { "type": "LineString", "coordinates": [ [ -8.6448778, 41.9875591 ], [ -8.6444593, 41.9876528 ] ] } },
{ "type": "Feature", "properties": { "name": null, "waterway": "drain" }, "geometry": { "type": "LineString", "coordinates": [ [ -8.6442719, 41.9872576 ], [ -8.6442876, 41.9872441 ] ] } },
{ "type": "Feature", "properties": { "name": null, "waterway": "drain" }, "geometry": { "type": "LineString", "coordinates": [ [ -8.6436614, 41.9872343 ], [ -8.6435964, 41.9872364 ] ] } },
{ "type": "Feature", "properties": { "name": null, "waterway": "drain" }, "geometry": { "type": "LineString", "coordinates": [ [ -8.643424, 41.9880695 ], [ -8.6434776, 41.9880727 ] ] } },
{ "type": "Feature", "properties": { "name": null, "waterway": "drain" }, "geometry": { "type": "LineString", "coordinates": [ [ -8.6437199, 41.9880796 ], [ -8.6437185, 41.9880873 ] ] } },
{ "type": "Feature", "properties": { "name": null, "waterway": "drain" }, "geometry": { "type": "LineString", "coordinates": [ [ -8.6434776, 41.9880727 ], [ -8.6436945, 41.9880936 ] ] } },
{ "type": "Feature", "properties": { "name": null, "waterway": "drain" }, "geometry": { "type": "LineString", "coordinates": [ [ -8.6422944, 41.989832 ], [ -8.6424665, 41.9895267 ], [ -8.642517, 41.9894453 ], [ -8.6425925, 41.9893293 ], [ -8.6426914, 41.9891861 ], [ -8.6427665, 41.9890864 ], [ -8.6428737, 41.9889529 ], [ -8.6430592, 41.9887293 ], [ -8.6431853, 41.9885797 ], [ -8.6432416, 41.98851 ], [ -8.6432738, 41.9884621 ], [ -8.6432979, 41.9884183 ], [ -8.6433221, 41.9883744 ], [ -8.6433382, 41.9883286 ], [ -8.6433485, 41.988279 ], [ -8.6433569, 41.9882089 ], [ -8.643365, 41.9881631 ], [ -8.6433704, 41.9881352 ], [ -8.6433834, 41.9881115 ], [ -8.6434025, 41.9880893 ], [ -8.643424, 41.9880695 ] ] } },
{ "type": "Feature", "properties": { "name": null, "waterway": "drain" }, "geometry": { "type": "LineString", "coordinates": [ [ -8.8086803, 41.6626306 ], [ -8.8087599, 41.6626835 ], [ -8.8088077, 41.6627245 ], [ -8.8088391, 41.6627882 ], [ -8.808978, 41.6628669 ], [ -8.8091442, 41.6630028 ], [ -8.8092094, 41.6631076 ], [ -8.8092586, 41.6632278 ], [ -8.809404, 41.6632961 ], [ -8.8102596, 41.6637449 ], [ -8.8103481, 41.6638111 ], [ -8.8104179, 41.6639473 ], [ -8.8105144, 41.6639734 ], [ -8.8106325, 41.6640295 ], [ -8.8108497, 41.6641457 ], [ -8.8110616, 41.6642098 ], [ -8.8113245, 41.6642519 ], [ -8.8116651, 41.6643861 ], [ -8.8119092, 41.6644042 ], [ -8.811999, 41.6644413 ], [ -8.8122821, 41.6644757 ], [ -8.8125546, 41.6645523 ], [ -8.8127564, 41.664629 ], [ -8.812944, 41.6646528 ], [ -8.8131917, 41.6647031 ], [ -8.813358, 41.6647797 ], [ -8.8136978, 41.6648511 ], [ -8.8143101, 41.6650256 ], [ -8.814848, 41.6651763 ], [ -8.8150152, 41.6651891 ], [ -8.8152754, 41.665262 ], [ -8.8158283, 41.665508 ], [ -8.8165845, 41.6663371 ] ] } },
{ "type": "Feature", "properties": { "name": null, "waterway": "drain" }, "geometry": { "type": "LineString", "coordinates": [ [ -8.8051492, 41.6613678 ], [ -8.8069188, 41.6620632 ], [ -8.807756, 41.6623791 ], [ -8.8081946, 41.6625268 ], [ -8.8083705, 41.662585 ], [ -8.808565, 41.6626424 ] ] } },
{ "type": "Feature", "properties": { "name": null, "waterway": "drain" }, "geometry": { "type": "LineString", "coordinates": [ [ -8.808565, 41.6626424 ], [ -8.8086803, 41.6626306 ] ] } },
{ "type": "Feature", "properties": { "name": null, "waterway": "drain" }, "geometry": { "type": "LineString", "coordinates": [ [ -8.6438608, 41.9863491 ], [ -8.6437137, 41.9865084 ], [ -8.6436355, 41.9865964 ], [ -8.6435742, 41.9866719 ], [ -8.6435232, 41.9867417 ], [ -8.6434907, 41.9867937 ], [ -8.6434665, 41.9868416 ], [ -8.6434451, 41.9868974 ], [ -8.6434209, 41.9869692 ], [ -8.6434021, 41.9870429 ], [ -8.643386, 41.9871167 ], [ -8.6433807, 41.9871745 ], [ -8.6433784, 41.9872321 ], [ -8.6433811, 41.987286 ], [ -8.6433864, 41.9873458 ], [ -8.6433972, 41.9874116 ], [ -8.643416, 41.9875152 ], [ -8.6434535, 41.9877066 ], [ -8.6434669, 41.9877963 ], [ -8.6434696, 41.9878302 ], [ -8.6434696, 41.9878721 ], [ -8.6434638, 41.9879281 ], [ -8.6434558, 41.987976 ], [ -8.6434481, 41.9880156 ], [ -8.6434374, 41.9880456 ], [ -8.643424, 41.9880695 ] ] } },
{ "type": "Feature", "properties": { "name": null, "waterway": "drain" }, "geometry": { "type": "LineString", "coordinates": [ [ -8.6439847, 41.9874832 ], [ -8.6440087, 41.9874594 ] ] } },
{ "type": "Feature", "properties": { "name": null, "waterway": "drain" }, "geometry": { "type": "LineString", "coordinates": [ [ -8.6444593, 41.9876528 ], [ -8.6443252, 41.9876448 ], [ -8.6442686, 41.9876288 ], [ -8.6442053, 41.9876059 ], [ -8.6441375, 41.9875751 ], [ -8.644065, 41.9875372 ], [ -8.6440007, 41.9874973 ], [ -8.6439847, 41.9874832 ] ] } },
{ "type": "Feature", "properties": { "name": null, "waterway": "drain" }, "geometry": { "type": "LineString", "coordinates": [ [ -8.6474044, 41.98853 ], [ -8.6473997, 41.9885396 ] ] } },
{ "type": "Feature", "properties": { "name": null, "waterway": "drain" }, "geometry": { "type": "LineString", "coordinates": [ [ -8.6946539, 41.8474812 ], [ -8.6946084, 41.8475637 ], [ -8.6945886, 41.8476391 ], [ -8.6945747, 41.8476713 ], [ -8.6945514, 41.8476843 ], [ -8.6945269, 41.8477172 ], [ -8.6945153, 41.8478136 ], [ -8.6945222, 41.8479168 ], [ -8.6945327, 41.8479697 ], [ -8.6945782, 41.8480201 ], [ -8.6946842, 41.8481884 ] ] } },
{ "type": "Feature", "properties": { "name": "Ribeira da Lara", "waterway": "drain" }, "geometry": { "type": "LineString", "coordinates": [ [ -8.532202, 42.0092174 ], [ -8.5321873, 42.0092624 ] ] } },
{ "type": "Feature", "properties": { "name": null, "waterway": "drain" }, "geometry": { "type": "LineString", "coordinates": [ [ -8.5172882, 41.584103 ], [ -8.5170911, 41.584109 ], [ -8.516792, 41.5841291 ], [ -8.5165721, 41.5841411 ], [ -8.5163937, 41.5841431 ], [ -8.5162623, 41.584115 ], [ -8.5161174, 41.5840187 ], [ -8.5160584, 41.5839906 ], [ -8.5159954, 41.5839335 ], [ -8.5157768, 41.5837238 ], [ -8.515593, 41.5835302 ], [ -8.515526, 41.5834429 ], [ -8.5155314, 41.5833597 ], [ -8.5155086, 41.5832724 ], [ -8.5154361, 41.5831691 ], [ -8.5153972, 41.5831179 ], [ -8.5152564, 41.5830627 ], [ -8.5151357, 41.5829935 ], [ -8.5150764, 41.5829368 ] ] } },
{ "type": "Feature", "properties": { "name": null, "waterway": "drain" }, "geometry": { "type": "LineString", "coordinates": [ [ -8.5352824, 41.5657679 ], [ -8.5352556, 41.5657603 ], [ -8.5348029, 41.5656675 ], [ -8.5343099, 41.5654252 ], [ -8.533767, 41.5651552 ], [ -8.5334062, 41.5650239 ], [ -8.5333417, 41.5649202 ], [ -8.5331967, 41.5648406 ], [ -8.532802, 41.5646273 ], [ -8.5326377, 41.5646213 ], [ -8.5325303, 41.564625 ], [ -8.5322694, 41.564319 ], [ -8.5321806, 41.5642664 ], [ -8.5318937, 41.5640186 ], [ -8.5318715, 41.5639673 ], [ -8.5319122, 41.5638801 ], [ -8.5318956, 41.5638109 ], [ -8.5318549, 41.5637112 ], [ -8.5318382, 41.5635866 ], [ -8.5317309, 41.5634675 ], [ -8.5315181, 41.5632501 ], [ -8.531494, 41.5631643 ], [ -8.5313589, 41.563095 ], [ -8.531296, 41.5629967 ], [ -8.5312109, 41.5629081 ], [ -8.5310147, 41.5627904 ], [ -8.5308093, 41.5627281 ], [ -8.5306423, 41.5626801 ], [ -8.5305605, 41.5626674 ], [ -8.5304627, 41.5627207 ], [ -8.5303957, 41.5627199 ], [ -8.5301406, 41.5626133 ], [ -8.5299206, 41.5625624 ], [ -8.5298728, 41.5625282 ], [ -8.5298473, 41.5624678 ], [ -8.5297888, 41.5624265 ], [ -8.5296974, 41.5624034 ], [ -8.5295346, 41.5624275 ], [ -8.529386, 41.5624244 ], [ -8.5293383, 41.5624066 ], [ -8.5292429, 41.5621946 ], [ -8.5291097, 41.5619858 ], [ -8.5289947, 41.5617927 ], [ -8.5288965, 41.5617028 ], [ -8.5284064, 41.561443 ] ] } },
{ "type": "Feature", "properties": { "name": null, "waterway": "drain" }, "geometry": { "type": "LineString", "coordinates": [ [ -8.5362358, 41.5660975 ], [ -8.5354424, 41.5658134 ], [ -8.5354217, 41.5658075 ] ] } },
{ "type": "Feature", "properties": { "name": null, "waterway": "drain" }, "geometry": { "type": "LineString", "coordinates": [ [ -8.5354217, 41.5658075 ], [ -8.5352824, 41.5657679 ] ] } },
{ "type": "Feature", "properties": { "name": null, "waterway": "drain" }, "geometry": { "type": "LineString", "coordinates": [ [ -8.633887, 41.6269571 ], [ -8.6342092, 41.627376 ], [ -8.6342186, 41.6275226 ], [ -8.634291, 41.6275994 ], [ -8.634326, 41.6277827 ], [ -8.634382, 41.6278857 ], [ -8.6345758, 41.6279887 ], [ -8.6347113, 41.6280445 ], [ -8.6347766, 41.6281475 ], [ -8.6349144, 41.6282121 ], [ -8.6350218, 41.6282208 ], [ -8.6355332, 41.6281492 ], [ -8.6356336, 41.6281178 ], [ -8.6357293, 41.6281283 ], [ -8.6357783, 41.62824 ], [ -8.6358321, 41.6283814 ], [ -8.6359371, 41.6284896 ], [ -8.6360562, 41.6285768 ], [ -8.6361916, 41.6286048 ], [ -8.6363061, 41.628692 ], [ -8.6364298, 41.6289573 ], [ -8.6365232, 41.6290498 ], [ -8.6365302, 41.6291528 ], [ -8.6365349, 41.6292767 ], [ -8.6365746, 41.6293675 ], [ -8.636717, 41.6294966 ], [ -8.6366913, 41.6296519 ], [ -8.6367777, 41.6297427 ], [ -8.6369996, 41.6299137 ], [ -8.6371233, 41.6299836 ], [ -8.6374082, 41.6303885 ], [ -8.6375436, 41.6304373 ], [ -8.6375926, 41.6304845 ], [ -8.637597, 41.630489 ] ] } },
{ "type": "Feature", "properties": { "name": null, "waterway": "drain" }, "geometry": { "type": "LineString", "coordinates": [ [ -8.6377008, 41.6305974 ], [ -8.6377281, 41.6306258 ], [ -8.6379032, 41.6307602 ], [ -8.6380316, 41.6308946 ], [ -8.6380526, 41.6309941 ], [ -8.63809, 41.6311145 ], [ -8.6380643, 41.6312349 ], [ -8.6380129, 41.6313135 ], [ -8.6378728, 41.6314601 ], [ -8.6379102, 41.6315142 ], [ -8.6389002, 41.6320587 ], [ -8.6398109, 41.6324461 ], [ -8.639896, 41.6324332 ] ] } },
{ "type": "Feature", "properties": { "name": null, "waterway": "drain" }, "geometry": { "type": "LineString", "coordinates": [ [ -8.637597, 41.630489 ], [ -8.6377008, 41.6305974 ] ] } },
{ "type": "Feature", "properties": { "name": null, "waterway": "drain" }, "geometry": { "type": "LineString", "coordinates": [ [ -8.5860474, 41.6845648 ], [ -8.5859286, 41.6846297 ], [ -8.5853584, 41.6850031 ], [ -8.5852464, 41.6850655 ], [ -8.5852447, 41.6851055 ], [ -8.5852297, 41.6852853 ], [ -8.5852247, 41.685354 ], [ -8.5852611, 41.6854017 ] ] } },
{ "type": "Feature", "properties": { "name": null, "waterway": "drain" }, "geometry": { "type": "LineString", "coordinates": [ [ -8.4211798, 41.6336736 ], [ -8.4210488, 41.6328999 ], [ -8.4209271, 41.6322298 ], [ -8.4209086, 41.6320363 ], [ -8.4209225, 41.6318463 ], [ -8.4211039, 41.6313643 ], [ -8.4212083, 41.6310732 ], [ -8.4212713, 41.6309136 ], [ -8.4213425, 41.6308058 ], [ -8.4217527, 41.6303534 ], [ -8.422258, 41.6298134 ], [ -8.4227063, 41.6293217 ], [ -8.4230036, 41.6290833 ], [ -8.4235674, 41.6287183 ] ] } },
{ "type": "Feature", "properties": { "name": null, "waterway": "drain" }, "geometry": { "type": "LineString", "coordinates": [ [ -8.5934688, 41.9239847 ], [ -8.593528, 41.9239781 ], [ -8.5937156, 41.9240814 ], [ -8.5937899, 41.9241552 ], [ -8.593782, 41.9241769 ], [ -8.5937386, 41.9243454 ], [ -8.5936643, 41.9245416 ], [ -8.5936457, 41.9246186 ], [ -8.5936555, 41.9246693 ], [ -8.5937097, 41.9247023 ] ] } },
{ "type": "Feature", "properties": { "name": null, "waterway": "drain" }, "geometry": { "type": "LineString", "coordinates": [ [ -8.3147285, 42.0937421 ], [ -8.3148218, 42.0937263 ], [ -8.3149082, 42.0937142 ], [ -8.3151662, 42.093592 ], [ -8.3153495, 42.0934863 ], [ -8.3154196, 42.0934465 ], [ -8.3157313, 42.0933763 ], [ -8.315834, 42.0933295 ], [ -8.3158842, 42.0932602 ], [ -8.3159554, 42.0932238 ], [ -8.3162345, 42.0930982 ], [ -8.3163057, 42.0930722 ], [ -8.3166524, 42.0930895 ], [ -8.3167563, 42.0931181 ], [ -8.3168089, 42.0931493 ], [ -8.3168638, 42.0932256 ], [ -8.3169315, 42.0932576 ], [ -8.316984, 42.0932619 ], [ -8.3170821, 42.0932567 ], [ -8.3171918, 42.0932706 ], [ -8.3173763, 42.0933269 ], [ -8.3175257, 42.0934144 ], [ -8.3176215, 42.0934456 ], [ -8.3178013, 42.0934231 ], [ -8.317911, 42.0934239 ], [ -8.3180488, 42.0934179 ], [ -8.3182973, 42.0933522 ] ] } },
{ "type": "Feature", "properties": { "name": null, "waterway": "drain" }, "geometry": { "type": "LineString", "coordinates": [ [ -8.3054374, 42.0918161 ], [ -8.3055486, 42.0920282 ], [ -8.3055656, 42.0923189 ], [ -8.305208, 42.0934437 ], [ -8.3052421, 42.0937975 ], [ -8.306073, 42.0944614 ], [ -8.3061004, 42.0944713 ], [ -8.3063222, 42.0946587 ], [ -8.3067834, 42.0947262 ], [ -8.3070517, 42.0948054 ], [ -8.3071412, 42.0948243 ], [ -8.3071899, 42.0948861 ], [ -8.307256, 42.0949283 ], [ -8.3074695, 42.0950081 ], [ -8.3075456, 42.0950127 ], [ -8.3077933, 42.094991 ], [ -8.3079243, 42.0949845 ], [ -8.3081464, 42.0949339 ], [ -8.3082711, 42.0949424 ], [ -8.3084198, 42.0948938 ], [ -8.3086206, 42.0948696 ], [ -8.3086994, 42.094842 ], [ -8.3087993, 42.0947855 ], [ -8.3089293, 42.0946828 ], [ -8.308915, 42.094649 ], [ -8.3088932, 42.0945128 ], [ -8.3088932, 42.0944959 ], [ -8.3090861, 42.0944545 ], [ -8.3093622, 42.0942916 ], [ -8.3095887, 42.0940999 ], [ -8.3097161, 42.0939922 ], [ -8.3097838, 42.0939778 ], [ -8.3098762, 42.0939583 ], [ -8.309981, 42.0939492 ], [ -8.3100996, 42.0939663 ], [ -8.3102783, 42.0939355 ], [ -8.3104123, 42.0939446 ], [ -8.3105463, 42.0939275 ], [ -8.3107435, 42.09382 ], [ -8.3111025, 42.0936371 ], [ -8.3112303, 42.0936005 ], [ -8.3112596, 42.0935045 ], [ -8.3113366, 42.0933833 ], [ -8.3114029, 42.0933079 ], [ -8.3115307, 42.0932873 ], [ -8.311694, 42.0933022 ], [ -8.3120976, 42.0934016 ], [ -8.3122024, 42.0934645 ] ] } },
{ "type": "Feature", "properties": { "name": null, "waterway": "drain" }, "geometry": { "type": "LineString", "coordinates": [ [ -8.3122024, 42.0934645 ], [ -8.312301, 42.0934691 ] ] } },
{ "type": "Feature", "properties": { "name": null, "waterway": "drain" }, "geometry": { "type": "LineString", "coordinates": [ [ -8.312301, 42.0934691 ], [ -8.3125059, 42.0934451 ], [ -8.3126615, 42.0934576 ], [ -8.3127108, 42.0934954 ], [ -8.3127863, 42.0935136 ], [ -8.312891, 42.0935628 ], [ -8.3132037, 42.0936657 ], [ -8.313441, 42.0937148 ], [ -8.3136813, 42.0937011 ], [ -8.313937, 42.093628 ], [ -8.3142282, 42.0935537 ], [ -8.3143391, 42.0935788 ], [ -8.3144439, 42.0935902 ], [ -8.3145332, 42.0936623 ], [ -8.3146195, 42.0937606 ] ] } },
{ "type": "Feature", "properties": { "name": null, "waterway": "drain" }, "geometry": { "type": "LineString", "coordinates": [ [ -8.3146195, 42.0937606 ], [ -8.3147285, 42.0937421 ] ] } },
{ "type": "Feature", "properties": { "name": null, "waterway": "drain" }, "geometry": { "type": "LineString", "coordinates": [ [ -8.4053399, 41.5535853 ], [ -8.4052529, 41.5534419 ] ] } },
{ "type": "Feature", "properties": { "name": null, "waterway": "drain" }, "geometry": { "type": "LineString", "coordinates": [ [ -8.4053773, 41.5536468 ], [ -8.4053399, 41.5535853 ] ] } },
{ "type": "Feature", "properties": { "name": null, "waterway": "drain" }, "geometry": { "type": "LineString", "coordinates": [ [ -8.4054153, 41.5537096 ], [ -8.4053773, 41.5536468 ] ] } },
{ "type": "Feature", "properties": { "name": null, "waterway": "drain" }, "geometry": { "type": "LineString", "coordinates": [ [ -8.4054527, 41.5537711 ], [ -8.4054153, 41.5537096 ] ] } },
{ "type": "Feature", "properties": { "name": null, "waterway": "drain" }, "geometry": { "type": "LineString", "coordinates": [ [ -8.3025171, 42.0895258 ], [ -8.3033686, 42.0900314 ], [ -8.3039115, 42.0904745 ] ] } },
{ "type": "Feature", "properties": { "name": null, "waterway": "drain" }, "geometry": { "type": "LineString", "coordinates": [ [ -8.3039115, 42.0904745 ], [ -8.3039769, 42.0905279 ] ] } },
{ "type": "Feature", "properties": { "name": null, "waterway": "drain" }, "geometry": { "type": "LineString", "coordinates": [ [ -8.3039769, 42.0905279 ], [ -8.3040499, 42.0905875 ], [ -8.3053102, 42.0915732 ], [ -8.3053911, 42.0917277 ] ] } },
{ "type": "Feature", "properties": { "name": null, "waterway": "drain" }, "geometry": { "type": "LineString", "coordinates": [ [ -8.3053911, 42.0917277 ], [ -8.3054374, 42.0918161 ] ] } },
{ "type": "Feature", "properties": { "name": null, "waterway": "drain" }, "geometry": { "type": "LineString", "coordinates": [ [ -8.5630773, 41.8507562 ], [ -8.5630954, 41.8508628 ], [ -8.5634303, 41.8510205 ], [ -8.5635021, 41.8510816 ], [ -8.5639022, 41.851156 ], [ -8.5640902, 41.8511591 ], [ -8.5642834, 41.8512045 ], [ -8.5644477, 41.851285 ], [ -8.5645207, 41.8513 ], [ -8.5650995, 41.8513169 ], [ -8.5653388, 41.8512996 ], [ -8.5655418, 41.8512861 ], [ -8.5657978, 41.8512087 ], [ -8.5659791, 41.8511457 ], [ -8.5661358, 41.8510341 ], [ -8.5665026, 41.8507718 ], [ -8.5671222, 41.8504817 ], [ -8.5672829, 41.8504139 ], [ -8.5673309, 41.8504108 ], [ -8.5673925, 41.850432 ], [ -8.5674415, 41.8505244 ], [ -8.5675045, 41.850704 ], [ -8.5675493, 41.8507792 ], [ -8.567607, 41.850798 ], [ -8.567772, 41.8507955 ], [ -8.5678186, 41.850747 ], [ -8.5678775, 41.8506791 ], [ -8.5679753, 41.8506181 ], [ -8.5680999, 41.8505568 ], [ -8.5682459, 41.8505254 ], [ -8.5689071, 41.8504658 ], [ -8.5691663, 41.8504465 ], [ -8.5693909, 41.8503934 ], [ -8.5696119, 41.8502854 ], [ -8.5698038, 41.8501421 ], [ -8.5700144, 41.8500345 ], [ -8.5702073, 41.8499525 ], [ -8.5702772, 41.849942 ], [ -8.5703516, 41.8499447 ], [ -8.570475, 41.8499604 ], [ -8.5706181, 41.8499925 ], [ -8.5710405, 41.8501211 ], [ -8.5712184, 41.850217 ], [ -8.5712882, 41.8502989 ], [ -8.5714009, 41.8504507 ], [ -8.5715362, 41.8506472 ], [ -8.5716768, 41.8507604 ], [ -8.5717811, 41.8508037 ], [ -8.5718484, 41.8508209 ], [ -8.5720072, 41.850821 ], [ -8.5721274, 41.8508115 ], [ -8.5722216, 41.8508127 ], [ -8.5724099, 41.8508484 ], [ -8.5725796, 41.8508798 ], [ -8.5727288, 41.8508891 ], [ -8.5727928, 41.850886 ], [ -8.5729379, 41.8508435 ], [ -8.5732833, 41.8507957 ], [ -8.5735172, 41.8507537 ], [ -8.5736115, 41.8507212 ], [ -8.5738991, 41.8505831 ], [ -8.5741359, 41.8504778 ], [ -8.5742423, 41.8504125 ], [ -8.5745819, 41.8501438 ], [ -8.5746826, 41.8500198 ], [ -8.5747384, 41.8499569 ], [ -8.5749415, 41.8497088 ], [ -8.5750727, 41.8493671 ], [ -8.575093, 41.8492206 ], [ -8.5751461, 41.8489975 ], [ -8.5752018, 41.8488579 ], [ -8.5753963, 41.8486364 ], [ -8.5755033, 41.848546 ], [ -8.5756998, 41.8484143 ], [ -8.5758491, 41.8483345 ], [ -8.5759655, 41.848308 ], [ -8.5760819, 41.8483198 ], [ -8.5762517, 41.848348 ], [ -8.5763815, 41.8483473 ], [ -8.5764673, 41.8483281 ], [ -8.5767593, 41.8482317 ], [ -8.5767671, 41.8482115 ], [ -8.576801, 41.8480781 ], [ -8.5768358, 41.8480251 ], [ -8.5769309, 41.8479096 ], [ -8.5770818, 41.847765 ], [ -8.5772385, 41.847685 ], [ -8.5775505, 41.8475774 ], [ -8.5777897, 41.8475645 ], [ -8.5781406, 41.8476031 ], [ -8.5783775, 41.8476318 ], [ -8.5787026, 41.8476844 ], [ -8.5791112, 41.8476794 ], [ -8.5792691, 41.8476781 ], [ -8.579402, 41.8477021 ], [ -8.5795065, 41.8477523 ], [ -8.5796247, 41.8477971 ], [ -8.5797514, 41.8477747 ], [ -8.5798667, 41.847668 ], [ -8.5799486, 41.8475593 ], [ -8.5801404, 41.8474425 ], [ -8.5803921, 41.8474324 ], [ -8.5806017, 41.8474211 ], [ -8.5808212, 41.8473944 ] ] } },
{ "type": "Feature", "properties": { "name": null, "waterway": "drain" }, "geometry": { "type": "LineString", "coordinates": [ [ -8.5630773, 41.8507562 ], [ -8.5630954, 41.8508628 ], [ -8.5634303, 41.8510205 ], [ -8.5635021, 41.8510816 ], [ -8.5639022, 41.851156 ], [ -8.5640902, 41.8511591 ], [ -8.5642834, 41.8512045 ], [ -8.5644477, 41.851285 ], [ -8.5645207, 41.8513 ], [ -8.5650995, 41.8513169 ], [ -8.5653388, 41.8512996 ], [ -8.5655418, 41.8512861 ], [ -8.5657978, 41.8512087 ], [ -8.5659791, 41.8511457 ], [ -8.5661358, 41.8510341 ], [ -8.5665026, 41.8507718 ], [ -8.5671222, 41.8504817 ], [ -8.5672829, 41.8504139 ], [ -8.5673309, 41.8504108 ], [ -8.5673925, 41.850432 ], [ -8.5674415, 41.8505244 ], [ -8.5675045, 41.850704 ], [ -8.5675493, 41.8507792 ], [ -8.567607, 41.850798 ], [ -8.567772, 41.8507955 ], [ -8.5678186, 41.850747 ], [ -8.5678775, 41.8506791 ], [ -8.5679753, 41.8506181 ], [ -8.5680999, 41.8505568 ], [ -8.5682459, 41.8505254 ], [ -8.5689071, 41.8504658 ], [ -8.5691663, 41.8504465 ], [ -8.5693909, 41.8503934 ], [ -8.5696119, 41.8502854 ], [ -8.5698038, 41.8501421 ], [ -8.5700144, 41.8500345 ], [ -8.5702073, 41.8499525 ], [ -8.5702772, 41.849942 ], [ -8.5703516, 41.8499447 ], [ -8.570475, 41.8499604 ], [ -8.5706181, 41.8499925 ], [ -8.5710405, 41.8501211 ], [ -8.5712184, 41.850217 ], [ -8.5712882, 41.8502989 ], [ -8.5714009, 41.8504507 ], [ -8.5715362, 41.8506472 ], [ -8.5716768, 41.8507604 ], [ -8.5717811, 41.8508037 ], [ -8.5718484, 41.8508209 ], [ -8.5720072, 41.850821 ], [ -8.5721274, 41.8508115 ], [ -8.5722216, 41.8508127 ], [ -8.5724099, 41.8508484 ], [ -8.5725796, 41.8508798 ], [ -8.5727288, 41.8508891 ], [ -8.5727928, 41.850886 ], [ -8.5729379, 41.8508435 ], [ -8.5732833, 41.8507957 ], [ -8.5735172, 41.8507537 ], [ -8.5736115, 41.8507212 ], [ -8.5738991, 41.8505831 ], [ -8.5741359, 41.8504778 ], [ -8.5742423, 41.8504125 ], [ -8.5745819, 41.8501438 ], [ -8.5746826, 41.8500198 ], [ -8.5747384, 41.8499569 ], [ -8.5749415, 41.8497088 ], [ -8.5750727, 41.8493671 ], [ -8.575093, 41.8492206 ], [ -8.5751461, 41.8489975 ], [ -8.5752018, 41.8488579 ], [ -8.5753963, 41.8486364 ], [ -8.5755033, 41.848546 ], [ -8.5756998, 41.8484143 ], [ -8.5758491, 41.8483345 ], [ -8.5759655, 41.848308 ], [ -8.5760819, 41.8483198 ], [ -8.5762517, 41.848348 ], [ -8.5763815, 41.8483473 ], [ -8.5764673, 41.8483281 ], [ -8.5767593, 41.8482317 ], [ -8.5767671, 41.8482115 ], [ -8.576801, 41.8480781 ], [ -8.5768358, 41.8480251 ], [ -8.5769309, 41.8479096 ], [ -8.5770818, 41.847765 ], [ -8.5772385, 41.847685 ], [ -8.5775505, 41.8475774 ], [ -8.5777897, 41.8475645 ], [ -8.5781406, 41.8476031 ], [ -8.5783775, 41.8476318 ], [ -8.5787026, 41.8476844 ], [ -8.5791112, 41.8476794 ], [ -8.5792691, 41.8476781 ], [ -8.579402, 41.8477021 ], [ -8.5795065, 41.8477523 ], [ -8.5796247, 41.8477971 ], [ -8.5797514, 41.8477747 ], [ -8.5798667, 41.847668 ], [ -8.5799486, 41.8475593 ], [ -8.5801404, 41.8474425 ], [ -8.5803921, 41.8474324 ], [ -8.5806017, 41.8474211 ], [ -8.5808212, 41.8473944 ] ] } },
{ "type": "Feature", "properties": { "name": null, "waterway": "drain" }, "geometry": { "type": "LineString", "coordinates": [ [ -8.5810042, 41.8473498 ], [ -8.5810237, 41.847345 ], [ -8.5811546, 41.847247 ], [ -8.5812775, 41.8471957 ], [ -8.5814273, 41.8471779 ], [ -8.5815969, 41.8472007 ], [ -8.5817828, 41.8472783 ], [ -8.5818805, 41.8473381 ], [ -8.5820239, 41.8474246 ], [ -8.582109, 41.8474509 ], [ -8.5822364, 41.8474526 ], [ -8.5823217, 41.8474169 ], [ -8.5824766, 41.8473299 ], [ -8.5825846, 41.8472649 ], [ -8.5827782, 41.8471004 ], [ -8.5828533, 41.8470371 ], [ -8.5830041, 41.8469625 ], [ -8.5830658, 41.8469293 ], [ -8.583195, 41.8468765 ], [ -8.5832907, 41.8468621 ], [ -8.5833487, 41.8468558 ], [ -8.5834578, 41.8468846 ], [ -8.5840759, 41.8470554 ] ] } },
{ "type": "Feature", "properties": { "name": null, "waterway": "drain" }, "geometry": { "type": "LineString", "coordinates": [ [ -8.5808212, 41.8473944 ], [ -8.5810042, 41.8473498 ] ] } }
]
}
