{
"type": "FeatureCollection",
"name": "osm_ditches_viana",
"crs": { "type": "name", "properties": { "name": "urn:ogc:def:crs:OGC:1.3:CRS84" } },
"features": [
{ "type": "Feature", "properties": { "name": null, "waterway": "ditch" }, "geometry": { "type": "LineString", "coordinates": [ [ -8.2711822, 41.855475 ], [ -8.2712765, 41.8554965 ], [ -8.2714415, 41.8554818 ], [ -8.2716132, 41.8554718 ], [ -8.2716329, 41.8554695 ], [ -8.2717151, 41.8554598 ], [ -8.2718573, 41.8554678 ], [ -8.272045, 41.8554938 ], [ -8.2721469, 41.8554938 ], [ -8.2722891, 41.8554778 ], [ -8.27245, 41.8554059 ], [ -8.2725305, 41.855296 ], [ -8.2725761, 41.8552361 ], [ -8.2726351, 41.8551382 ] ] } },
{ "type": "Feature", "properties": { "name": "Canal dos muiños do Castro", "waterway": "ditch" }, "geometry": { "type": "LineString", "coordinates": [ [ -8.5982515, 42.1421306 ], [ -8.5984002, 42.1421349 ], [ -8.5985166, 42.1421592 ], [ -8.5986723, 42.1422126 ], [ -8.5988223, 42.1422933 ], [ -8.5988965, 42.1423887 ], [ -8.598989, 42.1425308 ], [ -8.5990637, 42.1426378 ], [ -8.599094, 42.1427088 ], [ -8.5990756, 42.1428044 ], [ -8.5990824, 42.1429255 ], [ -8.5990483, 42.1430216 ], [ -8.5990448, 42.1431353 ], [ -8.599013, 42.143247 ], [ -8.5989408, 42.1433987 ], [ -8.5989026, 42.1435597 ], [ -8.5988833, 42.1436768 ], [ -8.5988993, 42.1437652 ] ] } },
{ "type": "Feature", "properties": { "name": "Canal dos muiños do Castro", "waterway": "ditch" }, "geometry": { "type": "LineString", "coordinates": [ [ -8.6004641, 42.1448676 ], [ -8.6005259, 42.1448714 ] ] } },
{ "type": "Feature", "properties": { "name": "Canal dos muiños do Castro", "waterway": "ditch" }, "geometry": { "type": "LineString", "coordinates": [ [ -8.5981952, 42.1421314 ], [ -8.5982515, 42.1421306 ] ] } },
{ "type": "Feature", "properties": { "name": "Canal dos muiños do Castro", "waterway": "ditch" }, "geometry": { "type": "LineString", "coordinates": [ [ -8.5988993, 42.1437652 ], [ -8.5989215, 42.14385 ] ] } },
{ "type": "Feature", "properties": { "name": "Canal dos muiños do Castro", "waterway": "ditch" }, "geometry": { "type": "LineString", "coordinates": [ [ -8.5989215, 42.14385 ], [ -8.5989599, 42.1439057 ], [ -8.5990288, 42.1439709 ], [ -8.5991472, 42.1439869 ], [ -8.5992067, 42.1440114 ], [ -8.5993002, 42.1440396 ], [ -8.5993472, 42.1441189 ], [ -8.5994273, 42.1441971 ], [ -8.599561, 42.1442569 ], [ -8.5996376, 42.1443325 ], [ -8.5997506, 42.1443947 ], [ -8.5999425, 42.144431 ], [ -8.6001062, 42.1444793 ], [ -8.6002221, 42.144544 ], [ -8.6002924, 42.1445825 ], [ -8.6003756, 42.1446502 ], [ -8.6004011, 42.1447352 ], [ -8.6004011, 42.1448083 ], [ -8.6004229, 42.144837 ], [ -8.6004641, 42.1448676 ] ] } },
{ "type": "Feature", "properties": { "name": "Canal dos muiños do Castro", "waterway": "ditch" }, "geometry": { "type": "LineString", "coordinates": [ [ -8.5957209, 42.142365 ], [ -8.5958274, 42.1424133 ], [ -8.5959275, 42.1424501 ], [ -8.5960085, 42.1424553 ], [ -8.5961484, 42.1424573 ], [ -8.5962929, 42.1424488 ], [ -8.596427, 42.1423548 ], [ -8.5965998, 42.1422807 ], [ -8.5967477, 42.1422553 ], [ -8.5969074, 42.142226 ], [ -8.5970048, 42.1422181 ], [ -8.5970788, 42.1422112 ], [ -8.5971939, 42.1422239 ], [ -8.5973013, 42.142226 ], [ -8.597397, 42.1422369 ], [ -8.597553, 42.1422288 ], [ -8.5977222, 42.1421904 ], [ -8.5979674, 42.1421614 ], [ -8.59814, 42.1421374 ], [ -8.5981952, 42.1421314 ] ] } },
{ "type": "Feature", "properties": { "name": "Canal dos muiños do Castro", "waterway": "ditch" }, "geometry": { "type": "LineString", "coordinates": [ [ -8.6005259, 42.1448714 ], [ -8.6006014, 42.1447836 ], [ -8.6006872, 42.1446945 ], [ -8.6007833, 42.1446462 ], [ -8.6008451, 42.1445609 ], [ -8.6009789, 42.1445011 ], [ -8.6010613, 42.144454 ], [ -8.6010973, 42.1443828 ], [ -8.6011299, 42.1443243 ], [ -8.6012123, 42.1442645 ], [ -8.6012895, 42.1442454 ], [ -8.6014114, 42.1441996 ], [ -8.6015418, 42.1441652 ], [ -8.601619, 42.1441538 ], [ -8.6016997, 42.1441614 ], [ -8.601822, 42.1441987 ], [ -8.6019464, 42.1442639 ], [ -8.6020267, 42.1443549 ], [ -8.602108, 42.1443724 ], [ -8.6021757, 42.1443809 ], [ -8.6022245, 42.1444275 ], [ -8.6022586, 42.1444807 ], [ -8.602297, 42.1445562 ], [ -8.6023443, 42.1446263 ], [ -8.6023588, 42.1446967 ], [ -8.6023798, 42.1447648 ], [ -8.6024284, 42.1448795 ], [ -8.6025013, 42.1449669 ], [ -8.6026147, 42.1451033 ], [ -8.6026841, 42.1451779 ], [ -8.6028313, 42.1452883 ], [ -8.6029701, 42.1453694 ], [ -8.6030794, 42.1454105 ], [ -8.6032026, 42.1454549 ], [ -8.6033075, 42.145448 ], [ -8.6033313, 42.1454241 ], [ -8.60336, 42.1453868 ], [ -8.6034157, 42.1453571 ], [ -8.6035411, 42.145342 ], [ -8.603655, 42.145261 ] ] } },
{ "type": "Feature", "properties": { "name": null, "waterway": "ditch" }, "geometry": { "type": "LineString", "coordinates": [ [ -8.5923076, 42.1269269 ], [ -8.592346, 42.126902 ], [ -8.5923926, 42.1268617 ], [ -8.5924747, 42.1267363 ], [ -8.5925297, 42.1265711 ], [ -8.5925924, 42.1263471 ], [ -8.592579, 42.1261657 ], [ -8.5926295, 42.1260096 ], [ -8.5926663, 42.1258738 ], [ -8.5927703, 42.1257169 ], [ -8.5928912, 42.1255877 ], [ -8.5929377, 42.1255188 ], [ -8.5929235, 42.1254109 ], [ -8.592892, 42.1253687 ], [ -8.5928473, 42.1252656 ], [ -8.5928509, 42.1251507 ], [ -8.5929735, 42.1247328 ], [ -8.5929312, 42.1245585 ], [ -8.5929264, 42.124444 ], [ -8.5929708, 42.1243076 ], [ -8.592972, 42.1241154 ], [ -8.5929882, 42.1239853 ], [ -8.5929618, 42.1238766 ], [ -8.5929227, 42.1237613 ], [ -8.592936, 42.1236358 ], [ -8.5929789, 42.1235547 ], [ -8.5930473, 42.1234244 ], [ -8.5930912, 42.1232723 ], [ -8.593156, 42.1230971 ], [ -8.5931944, 42.1229207 ], [ -8.5932257, 42.1228175 ], [ -8.5932722, 42.1226938 ], [ -8.593339, 42.1226331 ], [ -8.5934536, 42.1225854 ], [ -8.5935779, 42.1224998 ], [ -8.5936172, 42.1224575 ], [ -8.5936335, 42.1224263 ], [ -8.5936395, 42.1223938 ], [ -8.593643, 42.1223655 ], [ -8.5936666, 42.1223237 ], [ -8.5937034, 42.1223006 ], [ -8.5937621, 42.122278 ], [ -8.5938523, 42.1222847 ], [ -8.5939862, 42.1223322 ], [ -8.5941214, 42.1223559 ], [ -8.5942259, 42.1223677 ], [ -8.5944504, 42.1223704 ], [ -8.5945976, 42.122365 ], [ -8.5947108, 42.122344 ], [ -8.5948195, 42.1223165 ], [ -8.5949233, 42.122267 ], [ -8.595061, 42.1221811 ], [ -8.5951293, 42.1221394 ], [ -8.5952226, 42.1220994 ], [ -8.5953081, 42.1220708 ], [ -8.5953813, 42.1220725 ], [ -8.5954637, 42.1220914 ], [ -8.595538, 42.1221351 ], [ -8.5955629, 42.1221694 ] ] } },
{ "type": "Feature", "properties": { "name": null, "waterway": "ditch" }, "geometry": { "type": "LineString", "coordinates": [ [ -8.3385008, 41.9509484 ], [ -8.3390819, 41.9508283 ], [ -8.3393566, 41.9508084 ], [ -8.339703, 41.9507727 ], [ -8.3400394, 41.9506455 ], [ -8.34042, 41.9505379 ], [ -8.3407048, 41.9504141 ], [ -8.3409968, 41.9503416 ], [ -8.3413038, 41.9503256 ], [ -8.3415864, 41.9502978 ], [ -8.3417615, 41.9502505 ], [ -8.3419506, 41.9501781 ], [ -8.3421719, 41.950162 ], [ -8.3424826, 41.9501017 ] ] } },
{ "type": "Feature", "properties": { "name": null, "waterway": "ditch" }, "geometry": { "type": "LineString", "coordinates": [ [ -8.3424826, 41.9501017 ], [ -8.3425656, 41.9500894 ] ] } },
{ "type": "Feature", "properties": { "name": null, "waterway": "ditch" }, "geometry": { "type": "LineString", "coordinates": [ [ -8.3425656, 41.9500894 ], [ -8.3429588, 41.9500108 ], [ -8.3431044, 41.949981 ], [ -8.3432519, 41.9499185 ], [ -8.3433891, 41.9498928 ], [ -8.3439003, 41.9498382 ], [ -8.3443428, 41.9497937 ], [ -8.3445631, 41.9497785 ], [ -8.3451792, 41.9496632 ], [ -8.3454126, 41.9496215 ], [ -8.345646, 41.9496604 ], [ -8.3458364, 41.9495174 ], [ -8.3460269, 41.9494674 ], [ -8.3463648, 41.9493758 ], [ -8.34691, 41.9492064 ], [ -8.3473581, 41.9490717 ], [ -8.3477427, 41.9489106 ], [ -8.347879, 41.948837 ], [ -8.347948, 41.9487315 ], [ -8.3479966, 41.9485995 ], [ -8.3480283, 41.9484635 ], [ -8.3480246, 41.9481621 ], [ -8.3480283, 41.948076 ], [ -8.3480569, 41.9480328 ], [ -8.3482455, 41.9478842 ], [ -8.3483333, 41.947794 ], [ -8.3484173, 41.947619 ], [ -8.348533, 41.947469 ], [ -8.3488131, 41.9472107 ], [ -8.349095, 41.9471205 ], [ -8.3494516, 41.9470677 ], [ -8.3496421, 41.9470733 ], [ -8.3498885, 41.9470691 ], [ -8.3500901, 41.9470788 ], [ -8.3505028, 41.9472649 ], [ -8.350893, 41.9474024 ], [ -8.3511562, 41.9475662 ], [ -8.3512906, 41.947637 ], [ -8.3513989, 41.9477287 ], [ -8.3515371, 41.9477967 ] ] } },
{ "type": "Feature", "properties": { "name": null, "waterway": "ditch" }, "geometry": { "type": "LineString", "coordinates": [ [ -8.8176416, 41.8631469 ], [ -8.8176339, 41.8632169 ], [ -8.8176764, 41.8633618 ], [ -8.817679, 41.8634175 ], [ -8.8176596, 41.863502 ], [ -8.8176661, 41.863548 ], [ -8.8176699, 41.8636296 ], [ -8.8176906, 41.8637342 ], [ -8.8176815, 41.8638129 ], [ -8.8176571, 41.863881 ], [ -8.8176493, 41.8639357 ], [ -8.8176596, 41.8640163 ], [ -8.8176403, 41.8641468 ], [ -8.8176068, 41.8642438 ], [ -8.8176197, 41.8643042 ], [ -8.8176583, 41.8643925 ], [ -8.8175529, 41.8645713 ], [ -8.817502, 41.8648189 ], [ -8.8174671, 41.8652264 ], [ -8.8173544, 41.8653842 ], [ -8.8169736, 41.8656199 ], [ -8.8164532, 41.8658297 ], [ -8.8160804, 41.8661612 ], [ -8.8161153, 41.866391 ], [ -8.8164318, 41.8664928 ], [ -8.8165873, 41.8666426 ], [ -8.8164586, 41.8670281 ], [ -8.8165605, 41.8674636 ], [ -8.8161153, 41.8684303 ], [ -8.8160509, 41.8687659 ], [ -8.8160563, 41.8691733 ], [ -8.8157558, 41.8698644 ], [ -8.8154286, 41.8702239 ], [ -8.8154447, 41.8703118 ], [ -8.8157773, 41.8704197 ], [ -8.8160402, 41.8705755 ], [ -8.8159114, 41.8710708 ], [ -8.8162762, 41.8711227 ], [ -8.8166034, 41.8710628 ], [ -8.8167965, 41.8710389 ], [ -8.8170004, 41.8711068 ], [ -8.8173276, 41.870931 ], [ -8.8174832, 41.8708711 ], [ -8.8177943, 41.870963 ], [ -8.8180786, 41.8706873 ], [ -8.8184649, 41.8706354 ], [ -8.8188994, 41.8707113 ], [ -8.819232, 41.8707113 ], [ -8.8196129, 41.8705595 ], [ -8.8197041, 41.8705994 ], [ -8.8198489, 41.8707313 ], [ -8.8201761, 41.8707712 ], [ -8.8206053, 41.8707472 ], [ -8.8207474, 41.8707452 ], [ -8.8207543, 41.8710467 ] ] } },
{ "type": "Feature", "properties": { "name": null, "waterway": "ditch" }, "geometry": { "type": "LineString", "coordinates": [ [ -8.8176467, 41.8630845 ], [ -8.8176416, 41.8631469 ] ] } },
{ "type": "Feature", "properties": { "name": null, "waterway": "ditch" }, "geometry": { "type": "LineString", "coordinates": [ [ -8.821116, 41.8565894 ], [ -8.8207415, 41.8573019 ], [ -8.820559, 41.8574987 ], [ -8.820427, 41.8578468 ], [ -8.8203818, 41.8579323 ], [ -8.8203296, 41.8579712 ], [ -8.8202935, 41.8579933 ], [ -8.8202961, 41.8580221 ], [ -8.8203115, 41.8581853 ], [ -8.8203038, 41.8582256 ], [ -8.8202754, 41.8582582 ], [ -8.8202342, 41.8582793 ], [ -8.819943, 41.8583743 ], [ -8.8199288, 41.8583974 ], [ -8.8199391, 41.8584463 ], [ -8.8199391, 41.8584741 ], [ -8.8199198, 41.8584847 ], [ -8.8198206, 41.8585231 ], [ -8.8196041, 41.858596 ], [ -8.8195564, 41.8586229 ], [ -8.81955, 41.8586431 ], [ -8.8195422, 41.8587573 ], [ -8.8195474, 41.8588734 ], [ -8.8195667, 41.8589348 ], [ -8.81955, 41.8589492 ], [ -8.8192433, 41.8590394 ], [ -8.819157, 41.8590778 ], [ -8.8191247, 41.8591162 ], [ -8.8190809, 41.8591959 ], [ -8.8190564, 41.85924 ], [ -8.8190281, 41.8592582 ], [ -8.8189134, 41.8593101 ], [ -8.8188477, 41.8593456 ], [ -8.8188065, 41.8593868 ], [ -8.818773, 41.8594483 ], [ -8.8187137, 41.8595106 ], [ -8.818657, 41.8595433 ], [ -8.8186067, 41.8595673 ], [ -8.8185681, 41.8595874 ], [ -8.8185578, 41.8596143 ], [ -8.8185475, 41.8597093 ], [ -8.8185256, 41.8597678 ], [ -8.8184856, 41.8598254 ], [ -8.8184199, 41.8599041 ], [ -8.8183993, 41.8599492 ], [ -8.8183774, 41.8600068 ], [ -8.8183709, 41.8600538 ], [ -8.8183787, 41.8601105 ], [ -8.8184147, 41.8601642 ], [ -8.8184585, 41.8602275 ], [ -8.8185024, 41.8603321 ], [ -8.8185423, 41.8603792 ], [ -8.81859, 41.8604233 ], [ -8.8186093, 41.8604483 ], [ -8.8186158, 41.8604886 ], [ -8.8186093, 41.8605212 ], [ -8.8185848, 41.8605654 ], [ -8.8185165, 41.8606441 ], [ -8.8184366, 41.8607208 ], [ -8.8183825, 41.8607909 ], [ -8.8183104, 41.8608964 ], [ -8.8182897, 41.8609377 ], [ -8.8182756, 41.8609751 ], [ -8.8182717, 41.861002 ], [ -8.8182897, 41.8610845 ], [ -8.818282, 41.8611124 ], [ -8.8181944, 41.861169 ] ] } },
{ "type": "Feature", "properties": { "name": null, "waterway": "ditch" }, "geometry": { "type": "LineString", "coordinates": [ [ -8.8227824, 41.8630193 ], [ -8.8230099, 41.8639893 ], [ -8.8230192, 41.864015 ], [ -8.8230379, 41.8640281 ], [ -8.8230612, 41.8640358 ], [ -8.8230892, 41.8640406 ], [ -8.8231125, 41.8640573 ], [ -8.8231274, 41.864083 ], [ -8.8231311, 41.8641087 ], [ -8.8231414, 41.8641399 ], [ -8.8231675, 41.8641753 ] ] } },
{ "type": "Feature", "properties": { "name": null, "waterway": "ditch" }, "geometry": { "type": "LineString", "coordinates": [ [ -8.406923, 41.7419181 ], [ -8.4070922, 41.7418713 ], [ -8.4073176, 41.7418153 ], [ -8.4074838, 41.7416732 ], [ -8.4076287, 41.7414431 ], [ -8.4077789, 41.7411409 ], [ -8.4078835, 41.7409787 ], [ -8.4078835, 41.7408647 ], [ -8.4079345, 41.7407446 ], [ -8.4080444, 41.7406085 ], [ -8.4082063, 41.74043 ], [ -8.4083726, 41.7402658 ], [ -8.4086033, 41.7400497 ], [ -8.4088518, 41.7397539 ], [ -8.4089993, 41.7395147 ] ] } },
{ "type": "Feature", "properties": { "name": null, "waterway": "ditch" }, "geometry": { "type": "LineString", "coordinates": [ [ -8.7386207, 41.9296707 ], [ -8.7387912, 41.9299813 ], [ -8.7389472, 41.9300554 ], [ -8.7390406, 41.9301005 ], [ -8.7390943, 41.9301579 ] ] } },
{ "type": "Feature", "properties": { "name": null, "waterway": "ditch" }, "geometry": { "type": "LineString", "coordinates": [ [ -8.7390943, 41.9301579 ], [ -8.739197, 41.9302569 ] ] } },
{ "type": "Feature", "properties": { "name": null, "waterway": "ditch" }, "geometry": { "type": "LineString", "coordinates": [ [ -8.739197, 41.9302569 ], [ -8.7398952, 41.9304098 ], [ -8.7399699, 41.9304167 ], [ -8.7400376, 41.9304254 ], [ -8.740103, 41.9304532 ], [ -8.7401731, 41.9305036 ], [ -8.7402618, 41.930547 ], [ -8.7402057, 41.9306894 ], [ -8.7401777, 41.9307537 ], [ -8.7401894, 41.9308215 ], [ -8.7401637, 41.9308614 ], [ -8.7401614, 41.9309118 ], [ -8.7401427, 41.9309483 ], [ -8.7401427, 41.9309882 ], [ -8.7402362, 41.9311383 ] ] } },
{ "type": "Feature", "properties": { "name": null, "waterway": "ditch" }, "geometry": { "type": "LineString", "coordinates": [ [ -8.4945454, 42.0146326 ], [ -8.4945625, 42.0147561 ], [ -8.4945844, 42.0148137 ], [ -8.4947065, 42.0149973 ], [ -8.4948878, 42.0151733 ], [ -8.49509, 42.0153293 ], [ -8.4952632, 42.0154727 ], [ -8.4953088, 42.0155608 ], [ -8.4953446, 42.0156272 ], [ -8.4954238, 42.0157332 ], [ -8.495451, 42.0158104 ], [ -8.4954564, 42.0158931 ], [ -8.4954708, 42.0161042 ], [ -8.4955165, 42.0163697 ], [ -8.4955015, 42.0164364 ] ] } },
{ "type": "Feature", "properties": { "name": null, "waterway": "ditch" }, "geometry": { "type": "LineString", "coordinates": [ [ -8.4955015, 42.0164364 ], [ -8.4955041, 42.016461 ], [ -8.495699, 42.01645 ], [ -8.4958843, 42.0164305 ], [ -8.496376, 42.0163879 ], [ -8.4965505, 42.0163535 ], [ -8.496609, 42.0163523 ] ] } },
{ "type": "Feature", "properties": { "name": "Levada da Eiró", "waterway": "ditch" }, "geometry": { "type": "LineString", "coordinates": [ [ -8.524402, 41.9024021 ], [ -8.5244338, 41.9024207 ], [ -8.5245087, 41.9024292 ], [ -8.5245746, 41.9024004 ], [ -8.5246336, 41.9023734 ], [ -8.5246768, 41.902348 ], [ -8.5247495, 41.9022956 ], [ -8.5248426, 41.9022551 ], [ -8.5249698, 41.9021739 ], [ -8.5250197, 41.9021198 ], [ -8.5250629, 41.9020522 ], [ -8.5251401, 41.9019897 ], [ -8.5251719, 41.9019525 ], [ -8.5253263, 41.9019204 ], [ -8.5254013, 41.9019356 ], [ -8.5254444, 41.901993 ], [ -8.5254921, 41.9020843 ], [ -8.5255512, 41.9021519 ], [ -8.5255693, 41.9022027 ], [ -8.5255784, 41.9022787 ], [ -8.525608, 41.9023396 ], [ -8.5256579, 41.9023987 ], [ -8.5257124, 41.9024765 ], [ -8.5257624, 41.9025526 ], [ -8.5257987, 41.9026117 ], [ -8.5258169, 41.9026709 ], [ -8.5258532, 41.9027368 ], [ -8.5258987, 41.9027892 ], [ -8.5259441, 41.9028467 ], [ -8.5259804, 41.9028636 ], [ -8.5260917, 41.902916 ], [ -8.5261303, 41.9029346 ], [ -8.526203, 41.902943 ], [ -8.5262848, 41.9029549 ], [ -8.5263393, 41.9029938 ], [ -8.5264051, 41.9030411 ], [ -8.5264574, 41.9030749 ], [ -8.52653, 41.9031442 ], [ -8.5266471, 41.9032183 ], [ -8.5267625, 41.9033042 ], [ -8.5268933, 41.9033829 ], [ -8.5269952, 41.903433 ], [ -8.5270356, 41.903453 ], [ -8.5271798, 41.9034974 ], [ -8.5272586, 41.9035246 ], [ -8.5273709, 41.9035952 ], [ -8.527474, 41.9036377 ], [ -8.5275221, 41.9036763 ], [ -8.527574, 41.9037236 ], [ -8.5276529, 41.9037708 ], [ -8.5277394, 41.9038266 ], [ -8.5277683, 41.9038638 ], [ -8.5278336, 41.9039182 ], [ -8.5278721, 41.903954 ], [ -8.5279259, 41.9040084 ], [ -8.5279798, 41.9040585 ], [ -8.5280014, 41.9040792 ], [ -8.5280413, 41.9041172 ], [ -8.5280817, 41.9041701 ], [ -8.5281183, 41.9042045 ], [ -8.5281548, 41.9042374 ], [ -8.5282356, 41.9042989 ], [ -8.5282913, 41.9043462 ], [ -8.5283317, 41.9043862 ], [ -8.5283644, 41.9044478 ], [ -8.5284036, 41.9045245 ], [ -8.5284476, 41.90459 ], [ -8.5284769, 41.9046542 ], [ -8.5285192, 41.9046809 ], [ -8.5285746, 41.9047172 ], [ -8.5286528, 41.9047281 ], [ -8.5287195, 41.9047221 ], [ -8.5287765, 41.9047184 ], [ -8.5289507, 41.9047499 ], [ -8.5290794, 41.9047912 ], [ -8.5291722, 41.9048384 ], [ -8.5292927, 41.9049002 ], [ -8.5294295, 41.9049584 ], [ -8.529537, 41.9049923 ], [ -8.5296656, 41.905059 ], [ -8.5297438, 41.905099 ], [ -8.5297975, 41.9051341 ], [ -8.5298577, 41.9051717 ], [ -8.5299229, 41.9052285 ], [ -8.5301354, 41.9052623 ] ] } },
{ "type": "Feature", "properties": { "name": "Levada das Gerizes", "waterway": "ditch" }, "geometry": { "type": "LineString", "coordinates": [ [ -8.5358511, 41.9031235 ], [ -8.5358557, 41.9031709 ], [ -8.5358602, 41.90323 ], [ -8.5358443, 41.9032824 ], [ -8.5358057, 41.9033213 ], [ -8.535758, 41.9034092 ], [ -8.5357307, 41.903487 ], [ -8.535699, 41.9035546 ], [ -8.5356876, 41.9036053 ], [ -8.535699, 41.9037321 ], [ -8.5357148, 41.9038047 ], [ -8.5357512, 41.9038656 ], [ -8.5358057, 41.9039755 ], [ -8.5358693, 41.9040532 ], [ -8.5359049, 41.9041058 ], [ -8.5359207, 41.9041751 ], [ -8.5359252, 41.9042173 ], [ -8.5359677, 41.9042794 ], [ -8.5360221, 41.904348 ], [ -8.5360632, 41.9044065 ], [ -8.5360932, 41.9044788 ], [ -8.5361081, 41.9045846 ], [ -8.5360782, 41.9046515 ], [ -8.5360258, 41.9046904 ], [ -8.5359286, 41.904696 ], [ -8.5358724, 41.9047211 ], [ -8.5358014, 41.9047601 ], [ -8.5357752, 41.904838 ], [ -8.5357452, 41.9049271 ], [ -8.535734, 41.9049717 ] ] } },
{ "type": "Feature", "properties": { "name": "Levada do Lodeiro", "waterway": "ditch" }, "geometry": { "type": "LineString", "coordinates": [ [ -8.5299617, 41.9042329 ], [ -8.5299847, 41.9042654 ], [ -8.5300319, 41.9043042 ], [ -8.5300856, 41.9043236 ], [ -8.5301557, 41.9043369 ], [ -8.5302143, 41.9043417 ], [ -8.5302485, 41.9043357 ], [ -8.5303152, 41.9043236 ], [ -8.5304032, 41.9042945 ], [ -8.5304537, 41.9042666 ], [ -8.5305017, 41.9042237 ], [ -8.5305152, 41.9041993 ], [ -8.5305154, 41.9041816 ], [ -8.5305164, 41.9041595 ], [ -8.5306163, 41.9041389 ], [ -8.5306271, 41.9041249 ], [ -8.5309277, 41.9040823 ], [ -8.5310334, 41.9040849 ], [ -8.531083, 41.9040736 ], [ -8.5311754, 41.9040788 ], [ -8.5312209, 41.9040931 ], [ -8.5312775, 41.9041157 ], [ -8.5313464, 41.9041567 ], [ -8.5314043, 41.9041988 ], [ -8.5314498, 41.904245 ], [ -8.5314967, 41.9043261 ], [ -8.5315256, 41.9043764 ], [ -8.531556, 41.9044543 ], [ -8.5316042, 41.9045498 ], [ -8.5316194, 41.9045836 ], [ -8.5316484, 41.9046339 ], [ -8.5316897, 41.9046647 ], [ -8.5317421, 41.9046781 ], [ -8.5318345, 41.9046914 ], [ -8.5319034, 41.9046965 ], [ -8.5319572, 41.9046996 ], [ -8.5320096, 41.9047129 ], [ -8.5320951, 41.9047294 ], [ -8.5321613, 41.9047427 ], [ -8.5322509, 41.904756 ], [ -8.5323364, 41.9047663 ], [ -8.5323957, 41.9047622 ], [ -8.5324536, 41.9047591 ], [ -8.5325653, 41.904756 ], [ -8.5326135, 41.904753 ], [ -8.5326687, 41.9047489 ], [ -8.5327293, 41.9047376 ], [ -8.5327721, 41.9047263 ], [ -8.5328245, 41.9047191 ], [ -8.5328819, 41.9047195 ], [ -8.5329611, 41.9047281 ], [ -8.5330593, 41.9047351 ], [ -8.5331512, 41.904754 ], [ -8.5332526, 41.9047658 ], [ -8.5333793, 41.9048011 ], [ -8.5334463, 41.9048149 ], [ -8.533506, 41.9048271 ], [ -8.5335852, 41.9048648 ], [ -8.5336644, 41.9048837 ], [ -8.5337648, 41.9048889 ] ] } },
{ "type": "Feature", "properties": { "name": null, "waterway": "ditch" }, "geometry": { "type": "LineString", "coordinates": [ [ -8.5301354, 41.9052623 ], [ -8.5302218, 41.9052476 ], [ -8.5302569, 41.9052416 ] ] } },
{ "type": "Feature", "properties": { "name": null, "waterway": "ditch" }, "geometry": { "type": "LineString", "coordinates": [ [ -8.5302569, 41.9052416 ], [ -8.5303705, 41.9052698 ], [ -8.5304667, 41.9053023 ], [ -8.5305688, 41.905337 ], [ -8.5306729, 41.9053731 ], [ -8.5306938, 41.9053876 ], [ -8.5307403, 41.9054322 ], [ -8.5308122, 41.90545 ], [ -8.5309231, 41.9054656 ], [ -8.5309995, 41.9054779 ], [ -8.5310489, 41.9054701 ], [ -8.5310894, 41.9054419 ], [ -8.5311688, 41.9054564 ], [ -8.5312422, 41.9054955 ], [ -8.5313036, 41.9055311 ], [ -8.5313651, 41.9055724 ], [ -8.5314025, 41.9056014 ], [ -8.5314474, 41.9056515 ], [ -8.5315144, 41.9057231 ], [ -8.5316165, 41.9058142 ], [ -8.5316485, 41.9059184 ], [ -8.5316574, 41.9059605 ], [ -8.5316631, 41.9059878 ], [ -8.5316602, 41.9060746 ], [ -8.5316952, 41.9061353 ], [ -8.5317331, 41.9061982 ], [ -8.5317564, 41.9062676 ], [ -8.5317919, 41.9064045 ] ] } },
{ "type": "Feature", "properties": { "name": "Levada das Gerizes", "waterway": "ditch" }, "geometry": { "type": "LineString", "coordinates": [ [ -8.535734, 41.9049717 ], [ -8.5355283, 41.9050246 ] ] } },
{ "type": "Feature", "properties": { "name": "Levada das Gerizes", "waterway": "ditch" }, "geometry": { "type": "LineString", "coordinates": [ [ -8.5355283, 41.9050246 ], [ -8.5353861, 41.9050858 ], [ -8.5353487, 41.9051582 ], [ -8.5353225, 41.9052 ], [ -8.5352963, 41.9052389 ], [ -8.5352963, 41.9052779 ], [ -8.5352888, 41.905367 ], [ -8.5352701, 41.9054311 ], [ -8.5352552, 41.9054951 ], [ -8.5352514, 41.9055369 ], [ -8.535229, 41.9055758 ], [ -8.5351504, 41.9056761 ], [ -8.5350756, 41.905754 ], [ -8.5349933, 41.9058376 ], [ -8.5349634, 41.9058849 ], [ -8.534911, 41.905999 ], [ -8.5348437, 41.9060436 ], [ -8.5348287, 41.9061048 ], [ -8.53481, 41.9062413 ], [ -8.5347838, 41.9062997 ], [ -8.5347501, 41.9063888 ], [ -8.5347053, 41.9064779 ], [ -8.5346791, 41.9065614 ], [ -8.5346417, 41.906631 ], [ -8.5345893, 41.906748 ], [ -8.5345481, 41.9068176 ], [ -8.5344808, 41.9068983 ], [ -8.5344209, 41.9070097 ], [ -8.5343947, 41.9070904 ], [ -8.5344049, 41.9072106 ], [ -8.5343873, 41.9073126 ], [ -8.5343652, 41.9074178 ], [ -8.5343475, 41.9075263 ], [ -8.5343431, 41.9076282 ], [ -8.5343563, 41.9077499 ], [ -8.5344049, 41.9078386 ], [ -8.5344756, 41.9079274 ], [ -8.5345596, 41.9079932 ], [ -8.5346258, 41.9080622 ], [ -8.5346347, 41.9081017 ], [ -8.5345463, 41.9081905 ], [ -8.5342989, 41.9082727 ], [ -8.5341973, 41.9083121 ], [ -8.5341089, 41.9083384 ], [ -8.5340471, 41.9083713 ], [ -8.533972, 41.9084075 ], [ -8.5339221, 41.9084607 ] ] } },
{ "type": "Feature", "properties": { "name": null, "waterway": "ditch" }, "geometry": { "type": "LineString", "coordinates": [ [ -8.8001508, 41.5763317 ], [ -8.7999482, 41.5763307 ], [ -8.799796, 41.5763253 ], [ -8.7996398, 41.5762986 ], [ -8.7994145, 41.5762474 ] ] } },
{ "type": "Feature", "properties": { "name": null, "waterway": "ditch" }, "geometry": { "type": "LineString", "coordinates": [ [ -8.4090851, 41.7394477 ], [ -8.4092407, 41.7394697 ], [ -8.4094823, 41.7395468 ], [ -8.4097639, 41.7395848 ], [ -8.4100293, 41.7395618 ], [ -8.4102304, 41.7395037 ], [ -8.4105605, 41.7393626 ], [ -8.4106379, 41.7390954 ], [ -8.4107345, 41.7388032 ], [ -8.4107452, 41.738559 ], [ -8.4109276, 41.7383149 ], [ -8.4111875, 41.7381417 ], [ -8.4113407, 41.7381387 ], [ -8.4114802, 41.7382548 ], [ -8.4115445, 41.7384029 ], [ -8.4114748, 41.738555 ], [ -8.4114533, 41.7386951 ], [ -8.4115016, 41.7388312 ], [ -8.4114748, 41.7391315 ], [ -8.411389, 41.7394077 ], [ -8.4112428, 41.7395407 ], [ -8.411114, 41.7396228 ] ] } },
{ "type": "Feature", "properties": { "name": null, "waterway": "ditch" }, "geometry": { "type": "LineString", "coordinates": [ [ -8.4089993, 41.7395147 ], [ -8.4090851, 41.7394477 ] ] } },
{ "type": "Feature", "properties": { "name": null, "waterway": "ditch" }, "geometry": { "type": "LineString", "coordinates": [ [ -8.4111207, 41.7396999 ], [ -8.4112227, 41.73986 ], [ -8.4113782, 41.7400241 ], [ -8.4116171, 41.7401762 ], [ -8.4117673, 41.7402282 ], [ -8.4120141, 41.7402342 ], [ -8.4124057, 41.7402162 ], [ -8.4127276, 41.7401482 ], [ -8.413146, 41.7400541 ], [ -8.4134866, 41.73997 ], [ -8.4138836, 41.7398119 ], [ -8.4142403, 41.7395858 ] ] } },
{ "type": "Feature", "properties": { "name": null, "waterway": "ditch" }, "geometry": { "type": "LineString", "coordinates": [ [ -8.411114, 41.7396228 ], [ -8.4111207, 41.7396999 ] ] } },
{ "type": "Feature", "properties": { "name": null, "waterway": "ditch" }, "geometry": { "type": "LineString", "coordinates": [ [ -8.3900297, 41.7409975 ], [ -8.3901424, 41.7410174 ], [ -8.3903725, 41.7410579 ], [ -8.390558, 41.7411725 ], [ -8.3908209, 41.7414087 ], [ -8.391025, 41.7415245 ], [ -8.391151, 41.7416066 ], [ -8.3913656, 41.7418007 ], [ -8.3915641, 41.7419528 ], [ -8.391721, 41.7420619 ], [ -8.391784, 41.7420779 ], [ -8.391975, 41.7420889 ], [ -8.3921762, 41.7420799 ], [ -8.3923385, 41.7420429 ], [ -8.392431, 41.7419858 ], [ -8.392482, 41.7419108 ], [ -8.392545, 41.7418797 ], [ -8.3926389, 41.7418797 ], [ -8.3928092, 41.7419418 ], [ -8.3929755, 41.7420459 ], [ -8.3930801, 41.7421379 ], [ -8.3931271, 41.7421669 ], [ -8.3932115, 41.7421699 ], [ -8.3933403, 41.7421499 ], [ -8.3934757, 41.7421499 ], [ -8.3935468, 41.7421569 ], [ -8.3936085, 41.742211 ], [ -8.3937024, 41.742302 ], [ -8.393759, 41.7423999 ] ] } },
{ "type": "Feature", "properties": { "name": null, "waterway": "ditch" }, "geometry": { "type": "LineString", "coordinates": [ [ -8.3866126, 41.7384102 ], [ -8.3868413, 41.7384231 ], [ -8.3871095, 41.7384031 ], [ -8.3873295, 41.7383871 ], [ -8.3876151, 41.7383971 ], [ -8.3877211, 41.7385933 ], [ -8.3879222, 41.7388354 ], [ -8.3879759, 41.7388895 ] ] } },
{ "type": "Feature", "properties": { "name": null, "waterway": "ditch" }, "geometry": { "type": "LineString", "coordinates": [ [ -8.3879759, 41.7388895 ], [ -8.3879705, 41.7389775 ] ] } },
{ "type": "Feature", "properties": { "name": null, "waterway": "ditch" }, "geometry": { "type": "LineString", "coordinates": [ [ -8.3879705, 41.7389775 ], [ -8.3880456, 41.7391837 ], [ -8.3882288, 41.7394919 ], [ -8.3883736, 41.739596 ], [ -8.3885238, 41.7396501 ], [ -8.388666, 41.7396921 ], [ -8.3889515, 41.7397061 ], [ -8.3892223, 41.73966 ], [ -8.3895174, 41.73968 ], [ -8.3897856, 41.7397441 ], [ -8.3900002, 41.7397261 ], [ -8.3901129, 41.739644 ], [ -8.3901746, 41.7394819 ], [ -8.3901799, 41.7393478 ], [ -8.3902738, 41.7392477 ], [ -8.3904025, 41.7392257 ], [ -8.3905527, 41.7392617 ], [ -8.390711, 41.7394279 ], [ -8.3908961, 41.739602 ], [ -8.3910436, 41.7397041 ], [ -8.3912206, 41.7398001 ], [ -8.3913279, 41.7399002 ], [ -8.3914548, 41.7399865 ], [ -8.3915103, 41.7400243 ] ] } },
{ "type": "Feature", "properties": { "name": null, "waterway": "ditch" }, "geometry": { "type": "LineString", "coordinates": [ [ -8.3946871, 41.7340132 ], [ -8.3946636, 41.7341065 ], [ -8.3950793, 41.7343687 ], [ -8.3955433, 41.7347129 ], [ -8.3956291, 41.7348525 ], [ -8.395739, 41.7349166 ], [ -8.3957927, 41.7350287 ], [ -8.3958839, 41.7351688 ], [ -8.3959134, 41.7351928 ], [ -8.3960743, 41.7352248 ], [ -8.3962433, 41.7352228 ], [ -8.3964069, 41.7352429 ], [ -8.3965652, 41.7352188 ], [ -8.3966698, 41.7352168 ], [ -8.3967797, 41.7352328 ], [ -8.3967771, 41.7353209 ], [ -8.3967824, 41.735395 ], [ -8.3968012, 41.735465 ], [ -8.3966644, 41.7356191 ], [ -8.396541, 41.7357452 ], [ -8.3964364, 41.7358793 ], [ -8.3963855, 41.7360214 ], [ -8.3967958, 41.7361355 ], [ -8.3970962, 41.7362496 ], [ -8.3969407, 41.7364418 ] ] } },
{ "type": "Feature", "properties": { "name": null, "waterway": "ditch" }, "geometry": { "type": "LineString", "coordinates": [ [ -8.39381, 41.742537 ], [ -8.3939764, 41.7426232 ] ] } },
{ "type": "Feature", "properties": { "name": null, "waterway": "ditch" }, "geometry": { "type": "LineString", "coordinates": [ [ -8.3939764, 41.7426232 ], [ -8.3940783, 41.7427232 ], [ -8.394258, 41.7427493 ], [ -8.3944484, 41.7428713 ], [ -8.3946281, 41.7429314 ], [ -8.3947515, 41.7429394 ], [ -8.3947703, 41.7429534 ], [ -8.3947998, 41.7431315 ], [ -8.3948263, 41.743345 ], [ -8.3948558, 41.7434971 ], [ -8.3949262, 41.7436455 ], [ -8.3949711, 41.743717 ], [ -8.3950234, 41.7437398 ], [ -8.3951978, 41.7437598 ], [ -8.3952903, 41.7437638 ] ] } },
{ "type": "Feature", "properties": { "name": null, "waterway": "ditch" }, "geometry": { "type": "LineString", "coordinates": [ [ -8.614732, 41.8983498 ], [ -8.6147412, 41.8983668 ], [ -8.6147662, 41.8984038 ], [ -8.6147752, 41.8984511 ], [ -8.6147889, 41.8985194 ], [ -8.614813, 41.8985616 ], [ -8.6148856, 41.8986389 ], [ -8.6149141, 41.8986625 ], [ -8.6149571, 41.8987121 ], [ -8.6150094, 41.8987667 ], [ -8.6150874, 41.8987324 ], [ -8.6151607, 41.89872 ], [ -8.6152901, 41.8987291 ], [ -8.615355, 41.8987521 ], [ -8.6153767, 41.8987763 ], [ -8.6153895, 41.8988571 ], [ -8.6154099, 41.8989167 ], [ -8.6154676, 41.8989873 ], [ -8.6155404, 41.8990697 ], [ -8.6155552, 41.8991075 ], [ -8.6155602, 41.8992 ], [ -8.6155679, 41.8993179 ], [ -8.6156008, 41.899366 ] ] } },
{ "type": "Feature", "properties": { "name": null, "waterway": "ditch" }, "geometry": { "type": "LineString", "coordinates": [ [ -8.6156466, 41.8980899 ], [ -8.6156807, 41.8981131 ], [ -8.6157274, 41.8981185 ], [ -8.6158221, 41.8981226 ], [ -8.6158617, 41.8981455 ], [ -8.615898, 41.8981521 ], [ -8.6159541, 41.8981488 ], [ -8.6160245, 41.8981374 ], [ -8.6160619, 41.898193 ], [ -8.6160971, 41.898234 ], [ -8.6161147, 41.8983044 ], [ -8.6161037, 41.8983748 ], [ -8.6161037, 41.8984567 ], [ -8.6162401, 41.8984567 ], [ -8.6164051, 41.8985697 ] ] } },
{ "type": "Feature", "properties": { "name": null, "waterway": "ditch" }, "geometry": { "type": "LineString", "coordinates": [ [ -8.3847015, 41.7423318 ], [ -8.3847243, 41.7423439 ] ] } },
{ "type": "Feature", "properties": { "name": null, "waterway": "ditch" }, "geometry": { "type": "LineString", "coordinates": [ [ -8.3847994, 41.7424139 ], [ -8.3847957, 41.7425012 ], [ -8.3848467, 41.7425793 ], [ -8.3849423, 41.7426248 ], [ -8.3850483, 41.7426228 ], [ -8.3851676, 41.7425968 ], [ -8.3852628, 41.7425808 ], [ -8.3857134, 41.7425547 ], [ -8.3861361, 41.7426058 ], [ -8.3863547, 41.7426888 ], [ -8.3864258, 41.7427289 ] ] } },
{ "type": "Feature", "properties": { "name": null, "waterway": "ditch" }, "geometry": { "type": "LineString", "coordinates": [ [ -8.3849423, 41.7426248 ], [ -8.3849153, 41.7426353 ] ] } },
{ "type": "Feature", "properties": { "name": null, "waterway": "ditch" }, "geometry": { "type": "LineString", "coordinates": [ [ -8.3864258, 41.7427289 ], [ -8.3865139, 41.7427344 ] ] } },
{ "type": "Feature", "properties": { "name": null, "waterway": "ditch" }, "geometry": { "type": "LineString", "coordinates": [ [ -8.3865139, 41.7427344 ], [ -8.3865823, 41.7428444 ], [ -8.3866467, 41.7429405 ] ] } },
{ "type": "Feature", "properties": { "name": null, "waterway": "ditch" }, "geometry": { "type": "LineString", "coordinates": [ [ -8.3866467, 41.7429405 ], [ -8.3866185, 41.7429845 ] ] } },
{ "type": "Feature", "properties": { "name": null, "waterway": "ditch" }, "geometry": { "type": "LineString", "coordinates": [ [ -8.3866185, 41.7429845 ], [ -8.3868036, 41.7431626 ], [ -8.3870523, 41.7433094 ] ] } },
{ "type": "Feature", "properties": { "name": null, "waterway": "ditch" }, "geometry": { "type": "LineString", "coordinates": [ [ -8.3870523, 41.7433094 ], [ -8.3871622, 41.7433745 ], [ -8.3873124, 41.7434535 ] ] } },
{ "type": "Feature", "properties": { "name": null, "waterway": "ditch" }, "geometry": { "type": "LineString", "coordinates": [ [ -8.3873124, 41.7434535 ], [ -8.3875067, 41.7435456 ], [ -8.3877528, 41.7437761 ], [ -8.3879205, 41.7439872 ] ] } },
{ "type": "Feature", "properties": { "name": null, "waterway": "ditch" }, "geometry": { "type": "LineString", "coordinates": [ [ -8.3880012, 41.7440235 ], [ -8.3881326, 41.7441616 ], [ -8.3881858, 41.7441991 ], [ -8.388175, 41.7442311 ], [ -8.3881563, 41.7442712 ], [ -8.3881389, 41.7443642 ] ] } },
{ "type": "Feature", "properties": { "name": null, "waterway": "ditch" }, "geometry": { "type": "LineString", "coordinates": [ [ -8.3879205, 41.7439872 ], [ -8.3880012, 41.7440235 ] ] } },
{ "type": "Feature", "properties": { "name": null, "waterway": "ditch" }, "geometry": { "type": "LineString", "coordinates": [ [ -8.3926195, 41.7400341 ], [ -8.3926812, 41.7400431 ] ] } },
{ "type": "Feature", "properties": { "name": null, "waterway": "ditch" }, "geometry": { "type": "LineString", "coordinates": [ [ -8.3926812, 41.7400431 ], [ -8.3926692, 41.7400761 ], [ -8.3926651, 41.7401421 ], [ -8.3926973, 41.7401852 ], [ -8.3927309, 41.7402052 ], [ -8.3927818, 41.7401862 ], [ -8.3928127, 41.7402282 ], [ -8.3927738, 41.7402722 ], [ -8.3929481, 41.7404666 ], [ -8.3930675, 41.7405942 ], [ -8.3931855, 41.7407673 ] ] } },
{ "type": "Feature", "properties": { "name": null, "waterway": "ditch" }, "geometry": { "type": "LineString", "coordinates": [ [ -8.3931855, 41.7407673 ], [ -8.3931318, 41.7408134 ] ] } },
{ "type": "Feature", "properties": { "name": null, "waterway": "ditch" }, "geometry": { "type": "LineString", "coordinates": [ [ -8.3931318, 41.7408134 ], [ -8.3931935, 41.7409014 ], [ -8.3932069, 41.7409294 ], [ -8.3931909, 41.7409514 ], [ -8.393156, 41.7409635 ], [ -8.3930943, 41.7409595 ], [ -8.3929951, 41.7409434 ], [ -8.3928717, 41.7409254 ] ] } },
{ "type": "Feature", "properties": { "name": null, "waterway": "ditch" }, "geometry": { "type": "LineString", "coordinates": [ [ -8.3928717, 41.7409254 ], [ -8.3927939, 41.7409715 ] ] } },
{ "type": "Feature", "properties": { "name": null, "waterway": "ditch" }, "geometry": { "type": "LineString", "coordinates": [ [ -8.3915103, 41.7400243 ], [ -8.3915492, 41.7400238 ], [ -8.3915943, 41.7400371 ], [ -8.3916174, 41.7400449 ] ] } },
{ "type": "Feature", "properties": { "name": null, "waterway": "ditch" }, "geometry": { "type": "LineString", "coordinates": [ [ -8.391649, 41.7400757 ], [ -8.3916948, 41.7400926 ], [ -8.3917871, 41.7400958 ], [ -8.3919383, 41.7401201 ], [ -8.3921, 41.7401332 ], [ -8.392185, 41.7401401 ], [ -8.392224, 41.7401397 ], [ -8.3923647, 41.7401381 ], [ -8.3925203, 41.7401181 ], [ -8.3925954, 41.7400781 ], [ -8.3926195, 41.7400341 ] ] } },
{ "type": "Feature", "properties": { "name": null, "waterway": "ditch" }, "geometry": { "type": "LineString", "coordinates": [ [ -8.3916174, 41.7400449 ], [ -8.391649, 41.7400757 ] ] } },
{ "type": "Feature", "properties": { "name": null, "waterway": "ditch" }, "geometry": { "type": "LineString", "coordinates": [ [ -8.7402758, 41.9312019 ], [ -8.7403318, 41.9313131 ] ] } },
{ "type": "Feature", "properties": { "name": null, "waterway": "ditch" }, "geometry": { "type": "LineString", "coordinates": [ [ -8.7402362, 41.9311383 ], [ -8.7402758, 41.9312019 ] ] } },
{ "type": "Feature", "properties": { "name": null, "waterway": "ditch" }, "geometry": { "type": "LineString", "coordinates": [ [ -8.7827127, 41.5502541 ], [ -8.7824455, 41.5502533 ], [ -8.7822628, 41.5501987 ], [ -8.7820687, 41.5500649 ], [ -8.7816872, 41.5497518 ], [ -8.7813888, 41.5495077 ], [ -8.7808688, 41.5490057 ], [ -8.7806996, 41.5488284 ], [ -8.7801211, 41.5482689 ], [ -8.7798719, 41.5480409 ], [ -8.7796935, 41.5478245 ], [ -8.7795673, 41.5476334 ], [ -8.7794689, 41.5474077 ], [ -8.7793735, 41.5472028 ], [ -8.7793027, 41.547083 ] ] } },
{ "type": "Feature", "properties": { "name": null, "waterway": "ditch" }, "geometry": { "type": "LineString", "coordinates": [ [ -8.789306, 41.5511102 ], [ -8.7894351, 41.5511145 ] ] } },
{ "type": "Feature", "properties": { "name": null, "waterway": "ditch" }, "geometry": { "type": "LineString", "coordinates": [ [ -8.7894351, 41.5511145 ], [ -8.7895142, 41.551116 ], [ -8.7899105, 41.5510312 ], [ -8.7903116, 41.5509852 ], [ -8.7906544, 41.5509368 ], [ -8.7908428, 41.550984 ] ] } },
{ "type": "Feature", "properties": { "name": null, "waterway": "ditch" }, "geometry": { "type": "LineString", "coordinates": [ [ -8.7908428, 41.550984 ], [ -8.7909147, 41.5509763 ] ] } },
{ "type": "Feature", "properties": { "name": null, "waterway": "ditch" }, "geometry": { "type": "LineString", "coordinates": [ [ -8.7862748, 41.5517065 ], [ -8.7868439, 41.5515133 ], [ -8.7875146, 41.551306 ], [ -8.7881638, 41.5510827 ], [ -8.7883281, 41.5510273 ], [ -8.7885626, 41.5510823 ], [ -8.7888824, 41.5510678 ], [ -8.7889947, 41.5510898 ], [ -8.7890686, 41.5510663 ], [ -8.7891695, 41.5510963 ], [ -8.789245, 41.5511007 ], [ -8.7892775, 41.551104 ], [ -8.789306, 41.5511102 ] ] } },
{ "type": "Feature", "properties": { "name": null, "waterway": "ditch" }, "geometry": { "type": "LineString", "coordinates": [ [ -8.7861629, 41.5517279 ], [ -8.7862748, 41.5517065 ] ] } },
{ "type": "Feature", "properties": { "name": null, "waterway": "ditch" }, "geometry": { "type": "LineString", "coordinates": [ [ -8.7828611, 41.5502417 ], [ -8.7831056, 41.5502468 ], [ -8.7832995, 41.5503436 ], [ -8.7834287, 41.5505024 ], [ -8.7835825, 41.5506935 ], [ -8.7838471, 41.5510044 ], [ -8.784044, 41.5512531 ], [ -8.7842563, 41.5515225 ], [ -8.7843917, 41.551709 ], [ -8.7845025, 41.5517942 ], [ -8.784644, 41.5518379 ], [ -8.7848717, 41.5518425 ], [ -8.7860409, 41.5517435 ], [ -8.7861629, 41.5517279 ] ] } },
{ "type": "Feature", "properties": { "name": null, "waterway": "ditch" }, "geometry": { "type": "LineString", "coordinates": [ [ -8.7827127, 41.5502541 ], [ -8.7828611, 41.5502417 ] ] } },
{ "type": "Feature", "properties": { "name": null, "waterway": "ditch" }, "geometry": { "type": "LineString", "coordinates": [ [ -8.5770332, 41.7511494 ], [ -8.577023, 41.751069 ], [ -8.5769976, 41.7509833 ], [ -8.5769498, 41.750881 ], [ -8.576901, 41.7508059 ], [ -8.5768482, 41.7507505 ], [ -8.5767852, 41.7507149 ], [ -8.5766957, 41.7506542 ], [ -8.5766022, 41.7505913 ] ] } },
{ "type": "Feature", "properties": { "name": null, "waterway": "ditch" }, "geometry": { "type": "LineString", "coordinates": [ [ -8.5734907, 41.7531698 ], [ -8.5735585, 41.7531515 ], [ -8.5735816, 41.7531296 ], [ -8.5736771, 41.7531262 ], [ -8.5737341, 41.7531124 ], [ -8.5738481, 41.7531009 ], [ -8.5739729, 41.7531158 ], [ -8.5740668, 41.7531262 ], [ -8.5741362, 41.753102 ], [ -8.5741716, 41.7530653 ], [ -8.5741608, 41.7529342 ], [ -8.5741531, 41.752871 ], [ -8.5742455, 41.7528009 ], [ -8.5742702, 41.7527584 ], [ -8.5743395, 41.752694 ], [ -8.5743996, 41.7526814 ], [ -8.5744766, 41.7526757 ], [ -8.5745613, 41.7526297 ], [ -8.5746384, 41.7525791 ], [ -8.5747508, 41.7525067 ], [ -8.5748171, 41.7524676 ], [ -8.574834, 41.7524102 ], [ -8.5748386, 41.7523918 ], [ -8.5748633, 41.7523251 ], [ -8.5748987, 41.7522953 ], [ -8.5749388, 41.7522792 ], [ -8.5749834, 41.7522596 ], [ -8.5750266, 41.7522148 ], [ -8.5750312, 41.7521838 ], [ -8.5750497, 41.7521458 ], [ -8.5751067, 41.7520976 ], [ -8.5751498, 41.7520861 ], [ -8.5752084, 41.752078 ], [ -8.5752361, 41.75207 ], [ -8.57527, 41.7520229 ], [ -8.5753794, 41.7518654 ], [ -8.5754934, 41.7517654 ], [ -8.5755904, 41.7516229 ], [ -8.5756582, 41.751462 ], [ -8.5757368, 41.7513655 ], [ -8.5757475, 41.7512988 ], [ -8.5758003, 41.7512725 ], [ -8.5758607, 41.7512225 ], [ -8.5759344, 41.7511795 ], [ -8.5759948, 41.7511324 ], [ -8.5760431, 41.7510634 ], [ -8.5760833, 41.7510004 ], [ -8.5761557, 41.7509222 ], [ -8.5762787, 41.7508092 ], [ -8.5764697, 41.7506697 ], [ -8.5766022, 41.7505913 ], [ -8.5766517, 41.7505347 ], [ -8.5766832, 41.7505309 ], [ -8.5767533, 41.7505317 ], [ -8.576796, 41.7505104 ], [ -8.5768519, 41.7504369 ], [ -8.5771233, 41.7499637 ], [ -8.5771172, 41.7498818 ], [ -8.5770968, 41.7498022 ], [ -8.5771314, 41.7497051 ], [ -8.5771771, 41.749627 ], [ -8.5772259, 41.7495724 ], [ -8.5772798, 41.7495497 ], [ -8.5773604, 41.7495484 ], [ -8.5773753, 41.7495482 ], [ -8.5775715, 41.74953 ], [ -8.5779008, 41.749508 ], [ -8.5780787, 41.7494792 ], [ -8.5781542, 41.749454 ], [ -8.5781742, 41.7494473 ], [ -8.578289, 41.7493882 ] ] } },
{ "type": "Feature", "properties": { "name": null, "waterway": "ditch" }, "geometry": { "type": "LineString", "coordinates": [ [ -8.5748299, 41.7502211 ], [ -8.5749935, 41.7502311 ], [ -8.5750968, 41.7502371 ], [ -8.5751906, 41.7502311 ] ] } },
{ "type": "Feature", "properties": { "name": null, "waterway": "ditch" }, "geometry": { "type": "LineString", "coordinates": [ [ -8.5751094, 41.7503352 ], [ -8.5751397, 41.7502942 ], [ -8.5751906, 41.7502311 ], [ -8.5752376, 41.7501821 ], [ -8.5752912, 41.7501441 ], [ -8.5753529, 41.7501121 ], [ -8.575428, 41.750074 ], [ -8.5754723, 41.750054 ], [ -8.5755192, 41.750013 ], [ -8.5755675, 41.749914 ], [ -8.5755943, 41.7498579 ], [ -8.575648, 41.7497969 ], [ -8.5757137, 41.7497639 ], [ -8.5757687, 41.7497018 ], [ -8.5758612, 41.7495708 ], [ -8.5759069, 41.7495186 ], [ -8.5759629, 41.7494951 ], [ -8.576047, 41.7494899 ], [ -8.5761415, 41.7494916 ], [ -8.5762489, 41.7495099 ], [ -8.576361, 41.7495151 ], [ -8.5764486, 41.749523 ], [ -8.5765268, 41.7495099 ], [ -8.5766295, 41.749455 ], [ -8.5766914, 41.7494184 ], [ -8.5767475, 41.7494228 ], [ -8.5768304, 41.7494437 ], [ -8.5768887, 41.749462 ], [ -8.5769424, 41.7495082 ], [ -8.5769856, 41.7495334 ], [ -8.5770545, 41.7495369 ], [ -8.5771479, 41.7495186 ], [ -8.5772028, 41.7494934 ], [ -8.5772565, 41.7494934 ], [ -8.5773125, 41.7495021 ], [ -8.5773435, 41.7495148 ], [ -8.5773604, 41.7495484 ] ] } },
{ "type": "Feature", "properties": { "name": null, "waterway": "ditch" }, "geometry": { "type": "LineString", "coordinates": [ [ -8.5731201, 41.7534575 ], [ -8.5731455, 41.7534025 ], [ -8.5731509, 41.7533385 ], [ -8.5731777, 41.7532904 ], [ -8.5732059, 41.7532294 ], [ -8.5732694, 41.753195 ], [ -8.5733721, 41.7531698 ], [ -8.5734183, 41.7531698 ] ] } },
{ "type": "Feature", "properties": { "name": null, "waterway": "ditch" }, "geometry": { "type": "LineString", "coordinates": [ [ -8.5734183, 41.7531698 ], [ -8.5734907, 41.7531698 ] ] } },
{ "type": "Feature", "properties": { "name": null, "waterway": "ditch" }, "geometry": { "type": "LineString", "coordinates": [ [ -8.8181186, 41.8612183 ], [ -8.8181029, 41.8612285 ], [ -8.8180952, 41.8612957 ], [ -8.8180758, 41.8614032 ], [ -8.8180617, 41.8614454 ], [ -8.818005, 41.8615346 ], [ -8.8179702, 41.861621 ], [ -8.8179251, 41.8616632 ], [ -8.8179019, 41.8617016 ], [ -8.8178826, 41.8617899 ], [ -8.8178606, 41.8618437 ], [ -8.8178155, 41.8619252 ], [ -8.8177872, 41.8619895 ], [ -8.817782, 41.8620807 ], [ -8.8177279, 41.862311 ], [ -8.8177447, 41.8625241 ], [ -8.8177189, 41.862598 ], [ -8.8176429, 41.8627707 ], [ -8.8176274, 41.8628599 ], [ -8.8176596, 41.8629492 ], [ -8.8176571, 41.8630144 ], [ -8.8176467, 41.8630845 ] ] } },
{ "type": "Feature", "properties": { "name": null, "waterway": "ditch" }, "geometry": { "type": "LineString", "coordinates": [ [ -8.8181944, 41.861169 ], [ -8.8181186, 41.8612183 ] ] } },
{ "type": "Feature", "properties": { "name": null, "waterway": "ditch" }, "geometry": { "type": "LineString", "coordinates": [ [ -8.496609, 42.0163523 ], [ -8.4967157, 42.0163189 ], [ -8.4969179, 42.0162519 ] ] } },
{ "type": "Feature", "properties": { "name": null, "waterway": "ditch" }, "geometry": { "type": "LineString", "coordinates": [ [ -8.496609, 42.0163523 ], [ -8.4967157, 42.0163189 ], [ -8.4969179, 42.0162519 ] ] } },
{ "type": "Feature", "properties": { "name": null, "waterway": "ditch" }, "geometry": { "type": "LineString", "coordinates": [ [ -8.6374595, 41.5757973 ], [ -8.6375144, 41.5757141 ], [ -8.6375461, 41.5756137 ], [ -8.6375404, 41.5755673 ], [ -8.6375678, 41.5755111 ], [ -8.6376111, 41.5754604 ], [ -8.6376284, 41.5754226 ], [ -8.6376779, 41.5753006 ] ] } },
{ "type": "Feature", "properties": { "name": null, "waterway": "ditch" }, "geometry": { "type": "LineString", "coordinates": [ [ -8.420281, 41.9199136 ], [ -8.4203519, 41.920026 ], [ -8.4204228, 41.9201127 ], [ -8.4204554, 41.9201474 ], [ -8.4204619, 41.9201932 ], [ -8.4205142, 41.9202682 ], [ -8.4207203, 41.9205395 ], [ -8.4207483, 41.9205583 ], [ -8.4207529, 41.9205895 ], [ -8.4207809, 41.9206284 ], [ -8.4208574, 41.920661 ], [ -8.4209451, 41.9206957 ], [ -8.4211316, 41.920738 ], [ -8.4211643, 41.9207408 ], [ -8.4212128, 41.9207644 ], [ -8.4212995, 41.9207602 ], [ -8.421376, 41.920729 ], [ -8.4214832, 41.9207103 ], [ -8.4215942, 41.920704 ], [ -8.4216632, 41.9207561 ], [ -8.4216968, 41.9208324 ], [ -8.4217062, 41.9209067 ], [ -8.4217117, 41.921008 ], [ -8.42168, 41.9210656 ], [ -8.4216399, 41.9211246 ], [ -8.4216353, 41.9212106 ], [ -8.4216427, 41.9212925 ], [ -8.4216791, 41.9213647 ], [ -8.4217183, 41.9214376 ], [ -8.4217267, 41.9215014 ], [ -8.4217239, 41.9216187 ], [ -8.4217313, 41.9216693 ], [ -8.4217882, 41.9217228 ], [ -8.4218638, 41.9217644 ], [ -8.4220018, 41.9217832 ], [ -8.4220858, 41.921797 ], [ -8.422193, 41.9218165 ], [ -8.4222611, 41.9218532 ], [ -8.4224057, 41.9218532 ], [ -8.4224682, 41.921838 ], [ -8.4225997, 41.9218359 ], [ -8.4226603, 41.9218505 ], [ -8.4227424, 41.9219143 ], [ -8.4228105, 41.9219455 ], [ -8.4229233, 41.9219511 ], [ -8.4230287, 41.9219678 ], [ -8.423067, 41.9219802 ], [ -8.4230837, 41.9219997 ], [ -8.4231528, 41.9220247 ], [ -8.4231574, 41.9222148 ], [ -8.4231733, 41.9222752 ], [ -8.423201, 41.9224615 ] ] } }
]
}
