{"type": "FeatureCollection", "name": "watershed_viana_district_lev06", "crs": {"type": "name", "properties": {"name": "urn:ogc:def:crs:OGC:1.3:CRS84"}}, "features": [{"type": "Feature", "properties": {"PFAF_ID": "231901", "LEVEL": 6, "SUB_COUNT": 39, "SUB_AREA": 3697.4}, "geometry": {"type": "Polygon", "coordinates": [[[-8.36250006781682, 41.55], [-8.429166463895498, 41.55], [-8.525344019522311, 41.55], [-8.656249869515895, 41.55], [-8.760216611606042, 41.55], [-8.795693588224818, 41.55], [-8.796400621202231, 41.56054382324222], [-8.79943271213105, 41.564456176757844], [-8.800567287868898, 41.56887715657555], [-8.803599378797717, 41.57278951009118], [-8.804733954535564, 41.581377156575556], [-8.807766045464383, 41.58528951009118], [-8.808333333333307, 41.6041666666667], [-8.808333333333307, 41.60833333333336], [-8.811649237738688, 41.60918426513675], [-8.813067287868897, 41.61471048990889], [-8.816099378797716, 41.61862284342451], [-8.817233954535563, 41.62304382324222], [-8.820266045464383, 41.626956176757844], [-8.82140062120223, 41.635543823242216], [-8.82443271213105, 41.63945617675785], [-8.825567287868898, 41.643877156575556], [-8.828599378797717, 41.64778951009118], [-8.829733954535564, 41.65074666341149], [-8.825567287868898, 41.65612284342451], [-8.825, 41.65833333333337], [-8.82535332573782, 41.66909111870663], [-8.837146674262126, 41.68090888129343], [-8.8375, 41.683333333333366], [-8.840898301866293, 41.682361687554284], [-8.842626274956572, 41.67049068874786], [-8.849264526367161, 41.67579989963111], [-8.850617472330704, 41.68966013590498], [-8.861882527669245, 41.70200653076175], [-8.863117472330703, 41.706326802571645], [-8.866049194335911, 41.71033986409508], [-8.86728413899737, 41.71466013590498], [-8.870215861002578, 41.718673197428416], [-8.871450805664036, 41.72716013590498], [-8.874382527669244, 41.73117319742842], [-8.875617472330703, 41.735493469238314], [-8.878549194335912, 41.73950653076175], [-8.87978413899737, 41.74382680257165], [-8.882715861002579, 41.747839864095084], [-8.883950805664037, 41.75463578965932], [-8.87978413899737, 41.76033986409509], [-8.878549194335912, 41.768826802571645], [-8.871450805664036, 41.77700653076175], [-8.870215861002578, 41.783802456325986], [-8.874382527669244, 41.78950653076175], [-8.875617472330703, 41.802798800998296], [-8.867822604709175, 41.805027431911924], [-8.866049194335911, 41.808802456325985], [-8.870215861002578, 41.814506530761754], [-8.870833333333309, 41.8166666666667], [-8.874291653103272, 41.817554050021734], [-8.875567287868897, 41.827210489908886], [-8.879733954535565, 41.83258666992191], [-8.878429836697023, 41.840774197048646], [-8.873043823242162, 41.84526604546444], [-8.866099378797717, 41.847048272026946], [-8.867233954535564, 41.852210489908884], [-8.87140062120223, 41.85758666992191], [-8.869648573133656, 41.862153286404116], [-8.860543823242162, 41.87026604546444], [-8.84679328070744, 41.871489291720955], [-8.842233954535564, 41.876956176757844], [-8.840815904405357, 41.882482401529984], [-8.8375, 41.88333333333337], [-8.833333333333307, 41.88333333333337], [-8.83298000759546, 41.8857577853733], [-8.817019992404488, 41.90174221462677], [-8.816666666666642, 41.90833333333337], [-8.8125, 41.90833333333337], [-8.800909084743898, 41.90895690917972], [-8.8, 41.9125], [-8.797575547960044, 41.912853325737885], [-8.794091118706572, 41.91631334092885], [-8.785075547960043, 41.91701999240455], [-8.78159111870657, 41.92048000759552], [-8.77916666666664, 41.92083333333337], [-8.775, 41.92083333333337], [-8.770833333333307, 41.92083333333337], [-8.770833333333307, 41.90833333333337], [-8.730086602105008, 41.908915371365055], [-8.728267076280355, 41.916005452473996], [-8.714456176757785, 41.917233954535625], [-8.71054382324216, 41.920266045464444], [-8.704827880859348, 41.92173292371965], [-8.704166666666639, 41.9291666666667], [-8.670833333333306, 41.9291666666667], [-8.664242214626709, 41.928813340928855], [-8.660757785373237, 41.92535332573788], [-8.639953613281222, 41.924646674262185], [-8.635757785373237, 41.928813340928855], [-8.630908881293376, 41.92951999240455], [-8.627424452039904, 41.93298000759552], [-8.622575547960041, 41.93368665907121], [-8.610757785373236, 41.94548000759552], [-8.605908881293376, 41.946186659071216], [-8.594091118706569, 41.95798000759552], [-8.585786946614554, 41.95868665907121], [-8.58159111870657, 41.95451999240455], [-8.57745056152341, 41.95381334092885], [-8.567024400499104, 41.96421152750654], [-8.566313340928792, 41.96909111870663], [-8.558686659071153, 41.97674221462677], [-8.558333333333305, 41.9791666666667], [-8.543408881293374, 41.97881334092885], [-8.539924452039902, 41.975353325737885], [-8.53507554796004, 41.97464667426219], [-8.531591118706569, 41.971186659071215], [-8.522575547960042, 41.97048000759552], [-8.518379720052055, 41.966313340928856], [-8.514242214626707, 41.967019992404545], [-8.510416666666638, 41.97081875271271], [-8.506591118706568, 41.967019992404545], [-8.497545369466117, 41.966310967339446], [-8.492019992404485, 41.960757785373296], [-8.491666666666639, 41.95833333333337], [-8.476956176757783, 41.95890062120229], [-8.473043823242158, 41.96193271213111], [-8.46862284342445, 41.96306728786896], [-8.464710489908825, 41.96609937879778], [-8.460289510091117, 41.96723395453562], [-8.456377156575492, 41.97026604546444], [-8.447789510091116, 41.97140062120229], [-8.443877156575493, 41.97443271213111], [-8.422789510091116, 41.975567287868955], [-8.41887715657549, 41.978599378797774], [-8.413350762261256, 41.980017598470084], [-8.4125, 41.98333333333335], [-8.393408881293373, 41.98298000759552], [-8.389213053385387, 41.97881334092885], [-8.385075547960039, 41.97951999240455], [-8.381591118706567, 41.98298000759552], [-8.37257554796004, 41.98368665907122], [-8.3649244520399, 41.991313340928855], [-8.351742214626707, 41.99201999240455], [-8.348257785373233, 41.99548000759552], [-8.339242214626706, 41.99618665907121], [-8.331591118706568, 42.00381334092886], [-8.293408881293372, 42.004519992404546], [-8.289213053385387, 42.008686659071216], [-8.276742214626706, 42.00798000759552], [-8.27254638671872, 42.00381334092886], [-8.268408881293372, 42.004519992404546], [-8.2649244520399, 42.00798000759552], [-8.2625, 42.00833333333337], [-8.256122843424448, 42.008900621202294], [-8.252210489908823, 42.01193271213111], [-8.247789510091115, 42.01306728786896], [-8.242803955078095, 42.016931321885885], [-8.24074707031247, 42.00891621907556], [-8.230103895399274, 41.99943271213111], [-8.226956176757781, 42.00056728786896], [-8.210543823242157, 42.016099378797776], [-8.208333333333302, 42.01666666666669], [-8.193408881293372, 42.01701999240455], [-8.179520331488684, 42.03088277180993], [-8.179166666666635, 42.05], [-8.171732923719587, 42.05066121419274], [-8.170266045464379, 42.05637715657556], [-8.158900621202225, 42.068622843424514], [-8.157766045464378, 42.07304382324222], [-8.154733954535558, 42.07695617675785], [-8.154166666666635, 42.07916666666669], [-8.146732923719586, 42.07850545247399], [-8.144927639431392, 42.07147098117408], [-8.12695617675778, 42.07026604546444], [-8.12157999674476, 42.06609937879778], [-8.11445617675778, 42.067233954535624], [-8.106258816189204, 42.07453816731774], [-8.102210489908822, 42.071400621202294], [-8.1, 42.07083335073698], [-8.1, 42.04955171706076], [-8.1, 42.03124981881378], [-8.1, 41.90564135095978], [-8.1, 41.90209287936643], [-8.1, 41.81233895496925], [-8.1, 41.79945908340922], [-8.1, 41.78797434521902], [-8.1, 41.68801287050528], [-8.1, 41.664583267334194], [-8.1, 41.57509919604266], [-8.1, 41.55], [-8.177083333333034, 41.55], [-8.21912061903238, 41.55], [-8.223930652054493, 41.55], [-8.36250006781682, 41.55]], [[-8.816666666666642, 41.6916666666667], [-8.808333333333307, 41.6916666666667], [-8.809195285373239, 41.695025634765656], [-8.815451727973064, 41.69640062120229], [-8.816666666666642, 41.6916666666667]]]}}, {"type": "Feature", "properties": {"PFAF_ID": "231903", "LEVEL": 6, "SUB_COUNT": 2, "SUB_AREA": 493.7}, "geometry": {"type": "Polygon", "coordinates": [[[-8.800369262695286, 42.048942565918004], [-8.792271592881917, 42.03967268202044], [-8.791061740451362, 42.035327317979636], [-8.78810492621525, 42.0313393486871], [-8.786895073784695, 42.02282731797963], [-8.782728407118029, 42.01720733642582], [-8.783938259548584, 42.01032731797964], [-8.786895073784695, 42.0063393486871], [-8.78810492621525, 42.001993984646305], [-8.791061740451362, 41.998006015353766], [-8.792271592881917, 41.99366065131297], [-8.79522840711803, 41.989672682020434], [-8.796438259548584, 41.98532731797964], [-8.799395073784696, 41.9813393486871], [-8.800604926215252, 41.972827317979636], [-8.803561740451363, 41.9688393486871], [-8.804771592881918, 41.9644939846463], [-8.808938259548585, 41.95887400309248], [-8.807161119249105, 41.95488857693146], [-8.797827148437474, 41.95356157090932], [-8.79383951822914, 41.95060509575741], [-8.785327148437474, 41.94939490424266], [-8.78133951822914, 41.94643842909075], [-8.7717837863498, 41.945079888237885], [-8.77022840711803, 41.939493984646305], [-8.766061740451363, 41.933874003092484], [-8.767496405707439, 41.92571614583337], [-8.775, 41.925], [-8.778315904405355, 41.92414923773873], [-8.77916666666664, 41.92083333333337], [-8.78159111870657, 41.92048000759552], [-8.785075547960043, 41.91701999240455], [-8.794091118706572, 41.91631334092885], [-8.797575547960044, 41.912853325737885], [-8.8, 41.9125], [-8.811590915256051, 41.91187642415366], [-8.8125, 41.90833333333337], [-8.816666666666642, 41.90833333333337], [-8.818877156575494, 41.90776604546443], [-8.82278951009112, 41.90473395453561], [-8.827210489908829, 41.903599378797765], [-8.831122843424453, 41.90056728786894], [-8.835543823242162, 41.899432712131095], [-8.839456176757785, 41.896400621202275], [-8.844982571072023, 41.89498257107206], [-8.846400621202232, 41.88945617675783], [-8.863177151150147, 41.87172885470922], [-8.868877156575495, 41.870266045464426], [-8.87292650010848, 41.86712748209637], [-8.882694837782093, 41.87598775227866], [-8.883900621202232, 41.89241333007814], [-8.87963528103296, 41.89791666666669], [-8.882766045464384, 41.90195617675783], [-8.883900621202232, 41.91054382324221], [-8.88693271213105, 41.91445617675783], [-8.888067287868898, 41.931377156575536], [-8.891198052300322, 41.93541666666668], [-8.888067287868898, 41.93945617675783], [-8.88693271213105, 41.967413330078145], [-8.891099378797717, 41.97278951009116], [-8.892233954535564, 41.97574666341148], [-8.888067287868898, 41.9811228434245], [-8.88693271213105, 41.993877156575536], [-8.883900621202232, 41.99778951009117], [-8.882766045464384, 42.000746663411476], [-8.88693271213105, 42.0061228434245], [-8.888067287868898, 42.023043823242205], [-8.891198052300322, 42.02708333333335], [-8.888067287868898, 42.0311228434245], [-8.8875, 42.041666666666686], [-8.891741265190946, 42.042879231770854], [-8.888056776258654, 42.04792310926651], [-8.895215861002578, 42.0561730278863], [-8.896450805664037, 42.06466030544707], [-8.899438476562475, 42.06875], [-8.896394856770808, 42.072916666666686], [-8.899438476562475, 42.077083333333356], [-8.896450805664037, 42.0811730278863], [-8.895215861002578, 42.09630262586808], [-8.899382527669246, 42.10200636121964], [-8.9, 42.10416666666677], [-8.9, 42.11493104404525], [-8.899151272243898, 42.11599222819012], [-8.872839694552926, 42.11728413899741], [-8.864660305447023, 42.12438252766929], [-8.856173027886259, 42.125617472330745], [-8.852160305447022, 42.12854919433596], [-8.842666286892335, 42.129784138997415], [-8.840870836045982, 42.11744825575089], [-8.830534532335044, 42.11604919433596], [-8.828549194335912, 42.1229936387804], [-8.821450805664035, 42.131173027886305], [-8.820215861002579, 42.14029880099828], [-8.827160305447023, 42.14228413899742], [-8.831173027886258, 42.145215861002626], [-8.846302625868029, 42.14645080566408], [-8.852006361219592, 42.14228413899742], [-8.854635959201364, 42.141049194335956], [-8.86041666666664, 42.14527180989585], [-8.865550062391467, 42.14152187771269], [-8.86728413899737, 42.14900037977433], [-8.860416974274841, 42.15], [-8.677083333333321, 42.15], [-8.678549194335911, 42.1479936387804], [-8.679784138997368, 42.14367302788631], [-8.683664279513861, 42.13836161295575], [-8.695138888888861, 42.136691284179705], [-8.696450805664035, 42.116197374131964], [-8.692284138997369, 42.110493638780405], [-8.69166666666664, 42.0875], [-8.692803955078098, 42.08306867811419], [-8.699253336588514, 42.08806728786896], [-8.715762668185736, 42.086855570475294], [-8.717233954535564, 42.08112284342452], [-8.72443271213105, 42.07304382324222], [-8.725567287868897, 42.068622843424514], [-8.728599378797716, 42.06471048990889], [-8.72916666666664, 42.0625], [-8.752210489908828, 42.06306728786896], [-8.764456176757786, 42.07443271213111], [-8.776025390624973, 42.07556728786896], [-8.79778951009112, 42.05473395453563], [-8.803315904405355, 42.05331573486332], [-8.80416666666664, 42.05], [-8.800369262695286, 42.048942565918004]]]}}, {"type": "Feature", "properties": {"PFAF_ID": "231902", "LEVEL": 6, "SUB_COUNT": 12, "SUB_AREA": 1390.2}, "geometry": {"type": "Polygon", "coordinates": [[[-8.767496405707439, 41.92571614583337], [-8.766061740451363, 41.933874003092484], [-8.77022840711803, 41.939493984646305], [-8.7717837863498, 41.945079888237885], [-8.78133951822914, 41.94643842909075], [-8.785327148437474, 41.94939490424266], [-8.79383951822914, 41.95060509575741], [-8.797827148437474, 41.95356157090932], [-8.807161119249105, 41.95488857693146], [-8.808938259548585, 41.95887400309248], [-8.804771592881918, 41.9644939846463], [-8.803561740451363, 41.9688393486871], [-8.800604926215252, 41.972827317979636], [-8.799395073784696, 41.9813393486871], [-8.796438259548584, 41.98532731797964], [-8.79522840711803, 41.989672682020434], [-8.792271592881917, 41.99366065131297], [-8.791061740451362, 41.998006015353766], [-8.78810492621525, 42.001993984646305], [-8.786895073784695, 42.0063393486871], [-8.783938259548584, 42.01032731797964], [-8.782728407118029, 42.01720733642582], [-8.786895073784695, 42.02282731797963], [-8.78810492621525, 42.0313393486871], [-8.791061740451362, 42.035327317979636], [-8.792271592881917, 42.03967268202044], [-8.800369262695286, 42.048942565918004], [-8.80416666666664, 42.05], [-8.803315904405355, 42.05331573486332], [-8.79778951009112, 42.05473395453563], [-8.776025390624973, 42.07556728786896], [-8.764456176757786, 42.07443271213111], [-8.752210489908828, 42.06306728786896], [-8.72916666666664, 42.0625], [-8.728599378797716, 42.06471048990889], [-8.725567287868897, 42.068622843424514], [-8.72443271213105, 42.07304382324222], [-8.717233954535564, 42.08112284342452], [-8.715762668185736, 42.086855570475294], [-8.699253336588514, 42.08806728786896], [-8.692803955078098, 42.08306867811419], [-8.69166666666664, 42.0875], [-8.692284138997369, 42.110493638780405], [-8.696450805664035, 42.116197374131964], [-8.695138888888861, 42.136691284179705], [-8.683664279513861, 42.13836161295575], [-8.679784138997368, 42.14367302788631], [-8.678549194335911, 42.1479936387804], [-8.677083333333321, 42.15], [-8.578654978855859, 42.15], [-8.56922228398161, 42.15], [-8.389583333333466, 42.15], [-8.354390845259124, 42.15], [-8.268747895547925, 42.15], [-8.197624789423562, 42.15], [-8.15855669307539, 42.15], [-8.123193145297462, 42.15], [-8.1, 42.15], [-8.1, 42.12916672161752], [-8.1, 42.07083335073698], [-8.102210489908822, 42.071400621202294], [-8.106258816189204, 42.07453816731774], [-8.11445617675778, 42.067233954535624], [-8.12157999674476, 42.06609937879778], [-8.12695617675778, 42.07026604546444], [-8.144927639431392, 42.07147098117408], [-8.146732923719586, 42.07850545247399], [-8.154166666666635, 42.07916666666669], [-8.154733954535558, 42.07695617675785], [-8.157766045464378, 42.07304382324222], [-8.158900621202225, 42.068622843424514], [-8.170266045464379, 42.05637715657556], [-8.171732923719587, 42.05066121419274], [-8.179166666666635, 42.05], [-8.179520331488684, 42.03088277180993], [-8.193408881293372, 42.01701999240455], [-8.208333333333302, 42.01666666666669], [-8.210543823242157, 42.016099378797776], [-8.226956176757781, 42.00056728786896], [-8.230103895399274, 41.99943271213111], [-8.24074707031247, 42.00891621907556], [-8.242803955078095, 42.016931321885885], [-8.247789510091115, 42.01306728786896], [-8.252210489908823, 42.01193271213111], [-8.256122843424448, 42.008900621202294], [-8.2625, 42.00833333333337], [-8.2649244520399, 42.00798000759552], [-8.268408881293372, 42.004519992404546], [-8.27254638671872, 42.00381334092886], [-8.276742214626706, 42.00798000759552], [-8.289213053385387, 42.008686659071216], [-8.293408881293372, 42.004519992404546], [-8.331591118706568, 42.00381334092886], [-8.339242214626706, 41.99618665907121], [-8.348257785373233, 41.99548000759552], [-8.351742214626707, 41.99201999240455], [-8.3649244520399, 41.991313340928855], [-8.37257554796004, 41.98368665907122], [-8.381591118706567, 41.98298000759552], [-8.385075547960039, 41.97951999240455], [-8.389213053385387, 41.97881334092885], [-8.393408881293373, 41.98298000759552], [-8.4125, 41.98333333333335], [-8.413350762261256, 41.980017598470084], [-8.41887715657549, 41.978599378797774], [-8.422789510091116, 41.975567287868955], [-8.443877156575493, 41.97443271213111], [-8.447789510091116, 41.97140062120229], [-8.456377156575492, 41.97026604546444], [-8.460289510091117, 41.96723395453562], [-8.464710489908825, 41.96609937879778], [-8.46862284342445, 41.96306728786896], [-8.473043823242158, 41.96193271213111], [-8.476956176757783, 41.95890062120229], [-8.491666666666639, 41.95833333333337], [-8.492019992404485, 41.960757785373296], [-8.497545369466117, 41.966310967339446], [-8.506591118706568, 41.967019992404545], [-8.510416666666638, 41.97081875271271], [-8.514242214626707, 41.967019992404545], [-8.518379720052055, 41.966313340928856], [-8.522575547960042, 41.97048000759552], [-8.531591118706569, 41.971186659071215], [-8.53507554796004, 41.97464667426219], [-8.539924452039902, 41.975353325737885], [-8.543408881293374, 41.97881334092885], [-8.558333333333305, 41.9791666666667], [-8.558686659071153, 41.97674221462677], [-8.566313340928792, 41.96909111870663], [-8.567024400499104, 41.96421152750654], [-8.57745056152341, 41.95381334092885], [-8.58159111870657, 41.95451999240455], [-8.585786946614554, 41.95868665907121], [-8.594091118706569, 41.95798000759552], [-8.605908881293376, 41.946186659071216], [-8.610757785373236, 41.94548000759552], [-8.622575547960041, 41.93368665907121], [-8.627424452039904, 41.93298000759552], [-8.630908881293376, 41.92951999240455], [-8.635757785373237, 41.928813340928855], [-8.639953613281222, 41.924646674262185], [-8.660757785373237, 41.92535332573788], [-8.664242214626709, 41.928813340928855], [-8.670833333333306, 41.9291666666667], [-8.704166666666639, 41.9291666666667], [-8.704827880859348, 41.92173292371965], [-8.71054382324216, 41.920266045464444], [-8.714456176757785, 41.917233954535625], [-8.728267076280355, 41.916005452473996], [-8.730086602105008, 41.908915371365055], [-8.770833333333307, 41.90833333333337], [-8.770833333333307, 41.92083333333337], [-8.775, 41.92083333333337], [-8.775, 41.925], [-8.767496405707439, 41.92571614583337]]]}}]}